{"type":"FeatureCollection","metadata":{"type":"panden","source":"PDOK BAG WFS v2.0","api":"https://service.pdok.nl/lv/bag/wfs/v2_0","filter":"status='Pand in gebruik'","bbox":null,"count":100,"total_available":11325200,"generated":"2026-02-16T22:04:32","update_frequency":"dagelijks (BAG wordt dagelijks bijgewerkt door Kadaster)","gemeente":"Muiden"},"features":[{"type":"Feature","properties":{"identificatie":"0003100000117485","bouwjaar":1991,"status":"Pand in gebruik","gebruiksdoel":"woonfunctie","oppervlakte_min":77,"oppervlakte_max":79,"aantal_verblijfsobjecten":14},"bbox":[6.873597048995166,53.318623152118285,6.873968643936514,53.31878958977809],"geometry":{"type":"Polygon","coordinates":[[[6.873716323515063,53.31878958977809],[6.873707236190992,53.318748031472005],[6.873707039884501,53.31874712625691],[6.873692460027805,53.31874821419344],[6.873687550174745,53.31874858045113],[6.873687224615636,53.318748278933896],[6.873685892067047,53.31874706425318],[6.873597048995166,53.31866574709473],[6.8735986526995605,53.318665250977006],[6.873687802198886,53.31865842415932],[6.873684142802391,53.31864196109892],[6.873931943806901,53.318623152118285],[6.873958565953832,53.31874492325987],[6.873963626734861,53.31876807295412],[6.873968056859612,53.31876772160508],[6.873968643936514,53.318770383352565],[6.873716323515063,53.31878958977809]]]}},{"type":"Feature","properties":{"identificatie":"0003100000117487","bouwjaar":1994,"status":"Pand in gebruik","gebruiksdoel":"","aantal_verblijfsobjecten":0},"bbox":[6.811933278700792,53.31959696447326,6.812044882416541,53.31968211430781],"geometry":{"type":"Polygon","coordinates":[[[6.81196570184524,53.31959696447326],[6.812044882416541,53.319609676393206],[6.812012444394243,53.31968211430781],[6.811933278700792,53.31966940218953],[6.81196570184524,53.31959696447326]]]}},{"type":"Feature","properties":{"identificatie":"0003100000117489","bouwjaar":1989,"status":"Pand in gebruik","gebruiksdoel":"overige gebruiksfunctie","oppervlakte_min":8,"oppervlakte_max":8,"aantal_verblijfsobjecten":1},"bbox":[6.842833988525973,53.319322400950625,6.842890810389046,53.31936129862406],"geometry":{"type":"Polygon","coordinates":[[[6.842855550997975,53.31936129862406],[6.842833988525973,53.31933163465287],[6.842869244863359,53.319322400950625],[6.842890810389046,53.31935215474381],[6.842855550997975,53.31936129862406]]]}},{"type":"Feature","properties":{"identificatie":"0003100000117490","bouwjaar":1925,"status":"Pand in gebruik","gebruiksdoel":"woonfunctie","oppervlakte_min":109,"oppervlakte_max":109,"aantal_verblijfsobjecten":1},"bbox":[6.861166464285695,53.319134737808156,6.861379805209302,53.319248432082034],"geometry":{"type":"Polygon","coordinates":[[[6.861239322741782,53.31913964331482],[6.861300056108199,53.319134737808156],[6.861328905670019,53.31915725477174],[6.861379805209302,53.319196989127626],[6.8613332914759715,53.319218345395704],[6.8613315027650374,53.31921694745752],[6.861262958916401,53.319248432082034],[6.861213107784679,53.319209511583686],[6.861166464285695,53.31917310391109],[6.861239322741782,53.31913964331482]]]}},{"type":"Feature","properties":{"identificatie":"0003100000117491","bouwjaar":1930,"status":"Pand in gebruik","gebruiksdoel":"industriefunctie","oppervlakte_min":306,"oppervlakte_max":306,"aantal_verblijfsobjecten":1},"bbox":[6.862312571914943,53.319107764941656,6.86264432708174,53.31930023093476],"geometry":{"type":"Polygon","coordinates":[[[6.862499821216848,53.31926162037898],[6.862492875819192,53.319257329172196],[6.862418915564421,53.31930023093476],[6.862312571914943,53.31923449634783],[6.862424969235908,53.319169303634844],[6.8625310530185795,53.319107764941656],[6.86264432708174,53.31917779072068],[6.862631289253521,53.31918535565402],[6.862499821216848,53.31926162037898]]]}},{"type":"Feature","properties":{"identificatie":"0003100000117492","bouwjaar":1970,"status":"Pand in gebruik","gebruiksdoel":"kantoorfunctie,woonfunctie","oppervlakte_min":53,"oppervlakte_max":89,"aantal_verblijfsobjecten":29},"bbox":[6.871476048559949,53.31907721957032,6.872714948957372,53.31926462114407],"geometry":{"type":"Polygon","coordinates":[[[6.871476048559949,53.3191721244616],[6.8726156921726025,53.31907813898323],[6.87262682620471,53.31907721957032],[6.872634919195439,53.319113470190594],[6.872645975348274,53.31916297531228],[6.872702383910683,53.31915802761054],[6.872714948957372,53.319207765703155],[6.872654330525601,53.319212927190364],[6.872645102059843,53.31917290726292],[6.871499494720908,53.31926462114407],[6.871476048559949,53.3191721244616]]]}},{"type":"Feature","properties":{"identificatie":"0003100000117493","bouwjaar":1997,"status":"Pand in gebruik","gebruiksdoel":"sportfunctie,winkelfunctie","oppervlakte_min":465,"oppervlakte_max":4000,"aantal_verblijfsobjecten":8},"bbox":[6.877773293713703,53.317570139705474,6.878722182407603,53.31921258344],"geometry":{"type":"Polygon","coordinates":[[[6.877918826871991,53.31869587702472],[6.877896287083336,53.31852714615758],[6.8777847975743684,53.317692346382316],[6.877773293713703,53.31760619099347],[6.8785258576229396,53.317570139705474],[6.878673774016473,53.31868651249219],[6.878722182407603,53.31905188986496],[6.878595045346636,53.31921258344],[6.878517408096531,53.319202547071725],[6.878517240744613,53.319203348952335],[6.877977282723996,53.31913366961075],[6.877918826871991,53.31869587702472]]]}},{"type":"Feature","properties":{"identificatie":"0003100000117494","bouwjaar":1970,"status":"Pand in gebruik","gebruiksdoel":"woonfunctie","oppervlakte_min":89,"oppervlakte_max":89,"aantal_verblijfsobjecten":28},"bbox":[6.870173550977551,53.31915636649482,6.871412435069968,53.31938357030573],"geometry":{"type":"Polygon","coordinates":[[[6.870173550977551,53.31925127643848],[6.871314487908894,53.31915723346533],[6.871325023483693,53.31915636649482],[6.871337443442568,53.31921065370674],[6.8713440138605355,53.31923932956279],[6.871400777609474,53.31923466565859],[6.871412435069968,53.31928554738577],[6.871348532919314,53.31929080267492],[6.871346500885756,53.3192819131006],[6.871339629343283,53.319251901966105],[6.870235463270373,53.31934257987503],[6.870244066640868,53.31938019928315],[6.870203916745516,53.31938357030573],[6.870173550977551,53.31925127643848]]]}},{"type":"Feature","properties":{"identificatie":"0003100000117495","bouwjaar":2002,"status":"Pand in gebruik","gebruiksdoel":"woonfunctie","oppervlakte_min":90,"oppervlakte_max":145,"aantal_verblijfsobjecten":19},"bbox":[6.854579930632549,53.319090107838434,6.855351724440536,53.31960899552225],"geometry":{"type":"Polygon","coordinates":[[[6.855351724440536,53.31925550323182],[6.8553511961171845,53.319269070355745],[6.8553399362642375,53.31928084542798],[6.855320654369138,53.31928798257141],[6.855298018980815,53.31928875327235],[6.8552775163622774,53.31928296471646],[6.855264102183666,53.319272030174716],[6.855255225317711,53.31925375214578],[6.855238846439986,53.31925623474783],[6.855224942172899,53.319259549834136],[6.855131421364791,53.31928399395245],[6.855034861413633,53.31931570926149],[6.8549440409464335,53.31935246774802],[6.854858828003642,53.319393920561325],[6.854778109682553,53.319440881100654],[6.854765410644015,53.31943375704775],[6.854748703529944,53.31944467295156],[6.8548945399650725,53.31951844220643],[6.8548914306093245,53.31952056504378],[6.854881908422325,53.319515945402934],[6.854835271681867,53.319549216763114],[6.854780541911566,53.319595599397644],[6.854768256458603,53.31960899552225],[6.854579930632549,53.31954441677662],[6.8545976891016505,53.319526029246596],[6.854663016491235,53.319470009580854],[6.854716283169506,53.3194322269921],[6.854707073605688,53.3194275316289],[6.854710152043217,53.319425382214135],[6.854729849041872,53.3194352785577],[6.854746840880113,53.319424350193984],[6.854598121670336,53.319341269963616],[6.854594284274159,53.31934360837058],[6.854589486039946,53.31934064746879],[6.854693305250881,53.31927926025436],[6.854796910761128,53.31922923452668],[6.854907303260378,53.319185047963416],[6.855024341630423,53.319146962878776],[6.85514682914696,53.319115533059346],[6.855273260206572,53.31909061511881],[6.855293458219017,53.319090107838434],[6.85531203507459,53.31909487747309],[6.855325342086316,53.31910398905331],[6.855330752200481,53.31911565938623],[6.855327196062702,53.319127574021955],[6.855315389485574,53.319137396706566],[6.855297637817335,53.31914319413888],[6.855351724440536,53.31925550323182]]]}},{"type":"Feature","properties":{"identificatie":"0003100000117496","bouwjaar":1982,"status":"Pand in gebruik","gebruiksdoel":"overige gebruiksfunctie","oppervlakte_min":15,"oppervlakte_max":15,"aantal_verblijfsobjecten":1},"bbox":[6.87054152997263,53.31942674218717,6.870587694051219,53.319476756372715],"geometry":{"type":"Polygon","coordinates":[[[6.870587694051219,53.31947464077265],[6.870548791553372,53.319476756372715],[6.87054152997263,53.31942885778475],[6.8705804324276,53.31942674218717],[6.870587694051219,53.31947464077265]]]}},{"type":"Feature","properties":{"identificatie":"0003100000117497","bouwjaar":2007,"status":"Pand in gebruik","gebruiksdoel":"woonfunctie","oppervlakte_min":183,"oppervlakte_max":183,"aantal_verblijfsobjecten":1},"bbox":[6.862525123828008,53.31711995726844,6.8626666943979915,53.31726508019418],"geometry":{"type":"Polygon","coordinates":[[[6.862526091049956,53.31713951218259],[6.862611771816421,53.31711995726844],[6.8626666943979915,53.31720622797645],[6.862622230098477,53.31721635340101],[6.862641106194358,53.317246082859235],[6.86255765715761,53.31726508019418],[6.862525123828008,53.317213842793045],[6.862567205870325,53.31720426786321],[6.862526091049956,53.31713951218259]]]}},{"type":"Feature","properties":{"identificatie":"0003100000117498","bouwjaar":1915,"status":"Pand in gebruik","gebruiksdoel":"industriefunctie,woonfunctie","oppervlakte_min":1014,"oppervlakte_max":1014,"aantal_verblijfsobjecten":1},"bbox":[6.815585098095549,53.31343159770501,6.8167795426564,53.31387692869886],"geometry":{"type":"Polygon","coordinates":[[[6.8159929890631625,53.31385468657434],[6.816017440944098,53.313805572349125],[6.815998693067947,53.313797249062716],[6.816015430461601,53.31376302727724],[6.81603909243463,53.31376206302679],[6.816069593593621,53.313700790057716],[6.815585098095549,53.313608155613586],[6.815678623015063,53.31343276928304],[6.816085965318197,53.31351068407099],[6.816094314372254,53.31349502022768],[6.816144435319091,53.31350459708279],[6.8161680176482555,53.313459590992665],[6.8162627372902405,53.31347738142547],[6.8162375728291815,53.31352263999334],[6.816315082225419,53.31353729202705],[6.816369859578817,53.31343159770501],[6.8167795426564,53.313508565697965],[6.816619941604078,53.3138053553199],[6.816264176624513,53.313738053231276],[6.816236933558307,53.313789869680505],[6.816168379037875,53.313776935390784],[6.81616539325043,53.3137828300745],[6.816180129147608,53.31379189299122],[6.816167093549732,53.313817371875686],[6.816146956274056,53.31381919289672],[6.816117673393519,53.31387692869886],[6.8159929890631625,53.31385468657434]]]}},{"type":"Feature","properties":{"identificatie":"0003100000117501","bouwjaar":2006,"status":"Pand in gebruik","gebruiksdoel":"overige gebruiksfunctie","oppervlakte_min":16,"oppervlakte_max":16,"aantal_verblijfsobjecten":1},"bbox":[6.872637505178608,53.31632210275623,6.872698333609407,53.31637996386259],"geometry":{"type":"Polygon","coordinates":[[[6.872698333609407,53.3163750293573],[6.872653903621667,53.31637996386259],[6.872637505178608,53.31632695705157],[6.872681262575092,53.31632210275623],[6.872698333609407,53.3163750293573]]]}},{"type":"Feature","properties":{"identificatie":"0003100000117503","bouwjaar":1995,"status":"Pand in gebruik","gebruiksdoel":"overige gebruiksfunctie","oppervlakte_min":197,"oppervlakte_max":197,"aantal_verblijfsobjecten":1},"bbox":[6.8168692430522,53.32005336422808,6.817178465197403,53.320173241312766],"geometry":{"type":"Polygon","coordinates":[[[6.816893428451944,53.32005336422808],[6.817178465197403,53.320079826875684],[6.817154280401996,53.320173241312766],[6.8168692430522,53.320146778611225],[6.816893428451944,53.32005336422808]]]}},{"type":"Feature","properties":{"identificatie":"0003100000117506","bouwjaar":1900,"status":"Pand in gebruik","gebruiksdoel":"overige gebruiksfunctie","oppervlakte_min":42,"oppervlakte_max":42,"aantal_verblijfsobjecten":1},"bbox":[6.844555591291241,53.29634184647018,6.844677421867672,53.29641410479963],"geometry":{"type":"Polygon","coordinates":[[[6.844622513153752,53.29634184647018],[6.844665821658306,53.296355735722656],[6.844677421867672,53.29638385789596],[6.84465649352577,53.29640505051029],[6.844610900410719,53.29641410479963],[6.844567293828584,53.29640249275279],[6.844555591291241,53.29637622305076],[6.8445709672529285,53.296353623988935],[6.844622513153752,53.29634184647018]]]}},{"type":"Feature","properties":{"identificatie":"0003100000117507","bouwjaar":1963,"status":"Pand in gebruik","gebruiksdoel":"","aantal_verblijfsobjecten":0},"bbox":[6.8507027754483225,53.29658923380632,6.850765193428836,53.2966193813692],"geometry":{"type":"Polygon","coordinates":[[[6.850716941023164,53.296618740985416],[6.850713797797957,53.2966193813692],[6.850713605680692,53.29661902424445],[6.8507027754483225,53.296599565327845],[6.850754174106926,53.29658923380632],[6.850765193428836,53.29660896001396],[6.850716941023164,53.296618740985416]]]}},{"type":"Feature","properties":{"identificatie":"0003100000117508","bouwjaar":1988,"status":"Pand in gebruik","gebruiksdoel":"woonfunctie","oppervlakte_min":129,"oppervlakte_max":129,"aantal_verblijfsobjecten":1},"bbox":[6.84459202371675,53.29656205467711,6.844768492021209,53.29669561781685],"geometry":{"type":"Polygon","coordinates":[[[6.84461102450712,53.29663792361798],[6.84459202371675,53.29659898145849],[6.844624083638592,53.29659337142099],[6.844614543178727,53.296573824442206],[6.844681749344389,53.29656205467711],[6.844691354056849,53.296581726683975],[6.8447214307308,53.29657646419207],[6.8447505703347025,53.296636231127984],[6.844768492021209,53.2966729756478],[6.84463916396155,53.29669561781685],[6.84461102450712,53.29663792361798]]]}},{"type":"Feature","properties":{"identificatie":"0003100000117509","bouwjaar":1984,"status":"Pand in gebruik","gebruiksdoel":"overige gebruiksfunctie","oppervlakte_min":15,"oppervlakte_max":15,"aantal_verblijfsobjecten":1},"bbox":[6.8471041627549925,53.30181188747163,6.847151221555794,53.30186532424369],"geometry":{"type":"Polygon","coordinates":[[[6.847151221555794,53.301865172019966],[6.847104661695189,53.30186532424369],[6.8471041627549925,53.30181203987705],[6.8471507375534495,53.30181188747163],[6.847151221555794,53.301865172019966]]]}},{"type":"Feature","properties":{"identificatie":"0003100000117511","bouwjaar":1971,"status":"Pand in gebruik","gebruiksdoel":"bijeenkomstfunctie","oppervlakte_min":68,"oppervlakte_max":68,"aantal_verblijfsobjecten":1},"bbox":[6.8159550714056785,53.30276120267833,6.816125026380585,53.30290603865006],"geometry":{"type":"Polygon","coordinates":[[[6.816038933569826,53.30290603865006],[6.8159550714056785,53.30288516248676],[6.815986542622235,53.302840260082654],[6.816040231503709,53.30276366762496],[6.816041965043218,53.30276120267833],[6.816125026380585,53.302781459245345],[6.816038933569826,53.30290603865006]]]}},{"type":"Feature","properties":{"identificatie":"0003100000117514","bouwjaar":1992,"status":"Pand in gebruik","gebruiksdoel":"overige gebruiksfunctie","oppervlakte_min":12,"oppervlakte_max":12,"aantal_verblijfsobjecten":1},"bbox":[6.846088945042894,53.30384305911731,6.84616758473953,53.303897445114295],"geometry":{"type":"Polygon","coordinates":[[[6.84614598918646,53.303897445114295],[6.846088945042894,53.30388753342521],[6.8461103937282894,53.30384305911731],[6.84616758473953,53.30385287914734],[6.84614598918646,53.303897445114295]]]}},{"type":"Feature","properties":{"identificatie":"0003100000117516","bouwjaar":1992,"status":"Pand in gebruik","gebruiksdoel":"","aantal_verblijfsobjecten":0},"bbox":[6.826624659757762,53.304236155861425,6.827261665250293,53.30450913305562],"geometry":{"type":"Polygon","coordinates":[[[6.827261665250293,53.30447387553962],[6.826662023770665,53.30450913305562],[6.8266584450807555,53.304487320652626],[6.826649080280246,53.3044301526086],[6.826624659757762,53.304281061830224],[6.8266386445001865,53.30428023831675],[6.826632541109162,53.3042430172728],[6.82674922557338,53.304236155861425],[6.826755329064101,53.30427337689911],[6.827224283101596,53.30424580469108],[6.827261665250293,53.30447387553962]]]}},{"type":"Feature","properties":{"identificatie":"0003100000117517","bouwjaar":1970,"status":"Pand in gebruik","gebruiksdoel":"overige gebruiksfunctie","oppervlakte_min":20,"oppervlakte_max":20,"aantal_verblijfsobjecten":1},"bbox":[6.847338659560636,53.30670064322664,6.847400373146041,53.306733356804465],"geometry":{"type":"Polygon","coordinates":[[[6.847391975180075,53.306733356804465],[6.847338659560636,53.30672733650405],[6.847347057558541,53.30670064322664],[6.847400373146041,53.306706663523556],[6.847391975180075,53.306733356804465]]]}},{"type":"Feature","properties":{"identificatie":"0003100000117519","bouwjaar":1998,"status":"Pand in gebruik","gebruiksdoel":"kantoorfunctie","oppervlakte_min":592,"oppervlakte_max":592,"aantal_verblijfsobjecten":1},"bbox":[6.853927040435608,53.30834795450506,6.854367422665545,53.3089009722473],"geometry":{"type":"Polygon","coordinates":[[[6.854076347993395,53.30849108139238],[6.854053714338821,53.308445436237996],[6.853989372486984,53.30846248716849],[6.8539679817184584,53.30845777864127],[6.853927040435608,53.30840366686657],[6.853934512938257,53.30839177630721],[6.854042887555686,53.30836183148676],[6.854050081631493,53.30835983853451],[6.85409309854087,53.30834795450506],[6.854111759020271,53.308353999385794],[6.854148427712163,53.30842761019139],[6.854173598298732,53.30847814002007],[6.854171287576284,53.308481664000034],[6.854164455805626,53.30849209991563],[6.854178804570961,53.308520906480844],[6.854198882487999,53.30852892008056],[6.854275828938696,53.308683412639375],[6.854282775679815,53.30869751764368],[6.854270344779409,53.30870919914953],[6.854291221158151,53.30871465978806],[6.854305758904405,53.308744164983096],[6.854317137602506,53.308767256378374],[6.854305038979011,53.30878164777627],[6.854318497005307,53.30880896443867],[6.854328081406094,53.30881195680017],[6.854341184129504,53.30881604750854],[6.854367422665545,53.308869287188735],[6.854357084424457,53.30888029612457],[6.854239450860753,53.3089009722473],[6.854220831756927,53.3088948280282],[6.854193756947373,53.30883993600919],[6.854187474785491,53.308837864895054],[6.854174986675411,53.30883375768194],[6.854161503647004,53.30880614475261],[6.854171613285204,53.30879503078486],[6.854144585735341,53.308740201083054],[6.854154766683543,53.308728978407146],[6.854148415571545,53.308715620998214],[6.854129767462215,53.30870994442112],[6.854094456791413,53.30863921071732],[6.8541047828161785,53.30862784248943],[6.854117804093673,53.3086242506966],[6.854122976853962,53.308622821604644],[6.854139728942816,53.30861819575222],[6.85411837197934,53.3085752399871],[6.854117986052136,53.30857448083867],[6.854114910576103,53.3085683176395],[6.854107794045426,53.30855407091259],[6.854102222754216,53.30854290569343],[6.854076347993395,53.30849108139238]]]}},{"type":"Feature","properties":{"identificatie":"0003100000117520","bouwjaar":1996,"status":"Pand in gebruik","gebruiksdoel":"industriefunctie,woonfunctie","oppervlakte_min":117,"oppervlakte_max":117,"aantal_verblijfsobjecten":1},"bbox":[6.852498980736668,53.309183963267046,6.852671733918772,53.309330403064166],"geometry":{"type":"Polygon","coordinates":[[[6.852671733918772,53.30931100403379],[6.852557731037637,53.309330403064166],[6.852506205422564,53.30922178153876],[6.852498980736668,53.30920654751918],[6.852542778453967,53.30919905795728],[6.852538222313517,53.309189497876424],[6.85254031073143,53.309189139912206],[6.852570563249338,53.309183963267046],[6.852575119396357,53.3091935233466],[6.852612920272149,53.309187059447986],[6.85262869421796,53.30922029716017],[6.852671733918772,53.30931100403379]]]}},{"type":"Feature","properties":{"identificatie":"0003100000117521","bouwjaar":1960,"status":"Pand in gebruik","gebruiksdoel":"woonfunctie","oppervlakte_min":292,"oppervlakte_max":292,"aantal_verblijfsobjecten":1},"bbox":[6.850669327675837,53.30982720706947,6.851040791750644,53.3100234560632],"geometry":{"type":"Polygon","coordinates":[[[6.851012705262671,53.30982720706947],[6.851040791750644,53.30988636504272],[6.8509649030094275,53.30989928633108],[6.850979657858165,53.30993037987954],[6.850946987108068,53.309935945029665],[6.850967268186081,53.309978662797796],[6.850704200377558,53.3100234560632],[6.850669327675837,53.309950020118684],[6.850837798521881,53.30992132355477],[6.850809550107471,53.30986180804608],[6.851012705262671,53.30982720706947]]]}},{"type":"Feature","properties":{"identificatie":"0003100000117522","bouwjaar":1997,"status":"Pand in gebruik","gebruiksdoel":"overige gebruiksfunctie","oppervlakte_min":3,"oppervlakte_max":3,"aantal_verblijfsobjecten":1},"bbox":[6.855054615704309,53.310262377940084,6.855083028277107,53.310285579430285],"geometry":{"type":"Polygon","coordinates":[[[6.855065923975357,53.310285579430285],[6.855054615704309,53.31026590214749],[6.8550716609235325,53.310262377940084],[6.855083028277107,53.310282027540104],[6.855065923975357,53.310285579430285]]]}},{"type":"Feature","properties":{"identificatie":"0003100000117528","bouwjaar":1983,"status":"Pand in gebruik","gebruiksdoel":"overige gebruiksfunctie","oppervlakte_min":6,"oppervlakte_max":6,"aantal_verblijfsobjecten":1},"bbox":[6.884203098823919,53.311786798556994,6.884250097205566,53.31181540268548],"geometry":{"type":"Polygon","coordinates":[[[6.884213601996294,53.311786798556994],[6.884250097205566,53.31179292219138],[6.884239594050812,53.31181540268548],[6.884203098823919,53.31180927904799],[6.884213601996294,53.311786798556994]]]}},{"type":"Feature","properties":{"identificatie":"0003100000117530","bouwjaar":1965,"status":"Pand in gebruik","gebruiksdoel":"","aantal_verblijfsobjecten":0},"bbox":[6.857071977139206,53.31232795049695,6.857167822763671,53.31239972290414],"geometry":{"type":"Polygon","coordinates":[[[6.857129690073509,53.31232795049695],[6.85713953562586,53.31234297243394],[6.857167822763671,53.31238615735843],[6.857110109763747,53.31239972290414],[6.857082851829511,53.31235811600045],[6.857071977139206,53.31234151602427],[6.857129690073509,53.31232795049695]]]}},{"type":"Feature","properties":{"identificatie":"0003100000117531","bouwjaar":1950,"status":"Pand in gebruik","gebruiksdoel":"industriefunctie","oppervlakte_min":383,"oppervlakte_max":383,"aantal_verblijfsobjecten":1},"bbox":[6.882642959392537,53.311929475581515,6.883002285283734,53.31224878282432],"geometry":{"type":"Polygon","coordinates":[[[6.882649408187457,53.31200367013001],[6.882670156541815,53.3119962047263],[6.882642959392537,53.31196960129958],[6.882757842831787,53.311929475581515],[6.883002285283734,53.31217745635799],[6.883000769814152,53.31217702588806],[6.8828037038662,53.31224878282432],[6.88275304382761,53.31219552956098],[6.882770036779448,53.31218967453669],[6.882705398158096,53.312124058886376],[6.882751840318963,53.31210764663968],[6.882649408187457,53.31200367013001]]]}},{"type":"Feature","properties":{"identificatie":"0003100000117533","bouwjaar":1975,"status":"Pand in gebruik","gebruiksdoel":"overige gebruiksfunctie","oppervlakte_min":16,"oppervlakte_max":16,"aantal_verblijfsobjecten":1},"bbox":[6.864673787931713,53.31253739933523,6.864761513387935,53.31257041409706],"geometry":{"type":"Polygon","coordinates":[[[6.864761513387935,53.31256277250651],[6.864680851212117,53.31257041409706],[6.864673787931713,53.31254470947994],[6.86475453644881,53.31253739933523],[6.864761513387935,53.31256277250651]]]}},{"type":"Feature","properties":{"identificatie":"0003100000117536","bouwjaar":2006,"status":"Pand in gebruik","gebruiksdoel":"overige gebruiksfunctie","oppervlakte_min":16,"oppervlakte_max":16,"aantal_verblijfsobjecten":1},"bbox":[6.872769703953135,53.3163074089096,6.872831100665621,53.31636520928982],"geometry":{"type":"Polygon","coordinates":[[[6.872831100665621,53.316360295111096],[6.872786865094151,53.31636520928982],[6.872769703953135,53.31631228381391],[6.872813670704787,53.3163074089096],[6.872831100665621,53.316360295111096]]]}},{"type":"Feature","properties":{"identificatie":"0003100000117537","bouwjaar":2006,"status":"Pand in gebruik","gebruiksdoel":"overige gebruiksfunctie","oppervlakte_min":16,"oppervlakte_max":16,"aantal_verblijfsobjecten":1},"bbox":[6.872813670704787,53.31630265550139,6.8728753065357715,53.316360295111096],"geometry":{"type":"Polygon","coordinates":[[[6.8728753065357715,53.31635539026968],[6.872831100665621,53.316360295111096],[6.872813670704787,53.3163074089096],[6.872856531137272,53.31630265550139],[6.8728753065357715,53.31635539026968]]]}},{"type":"Feature","properties":{"identificatie":"0003100000117539","bouwjaar":1974,"status":"Pand in gebruik","gebruiksdoel":"overige gebruiksfunctie","oppervlakte_min":9,"oppervlakte_max":9,"aantal_verblijfsobjecten":1},"bbox":[6.86440866116182,53.31300565025525,6.864463793761522,53.31305734995184],"geometry":{"type":"Polygon","coordinates":[[[6.864463793761522,53.31305322506694],[6.864421379338842,53.31305734995184],[6.86440866116182,53.313009814569156],[6.864451359292983,53.31300565025525],[6.864463793761522,53.31305322506694]]]}},{"type":"Feature","properties":{"identificatie":"0003100000117545","bouwjaar":1950,"status":"Pand in gebruik","gebruiksdoel":"","aantal_verblijfsobjecten":0},"bbox":[6.860412772162219,53.31410669964591,6.860633470480634,53.31435795981936],"geometry":{"type":"Polygon","coordinates":[[[6.860532121934111,53.31410669964591],[6.860633470480634,53.314339314400364],[6.860514104803183,53.31435795981936],[6.860412772162219,53.314125353762186],[6.860532121934111,53.31410669964591]]]}},{"type":"Feature","properties":{"identificatie":"0003100000117546","bouwjaar":1973,"status":"Pand in gebruik","gebruiksdoel":"overige gebruiksfunctie","oppervlakte_min":23,"oppervlakte_max":23,"aantal_verblijfsobjecten":1},"bbox":[6.8650218594281895,53.31424380324368,6.865107194205714,53.31430393167538],"geometry":{"type":"Polygon","coordinates":[[[6.86508570499072,53.31424380324368],[6.865107194205714,53.31429415133333],[6.865043363881314,53.31430393167538],[6.8650218594281895,53.31425357477582],[6.86508570499072,53.31424380324368]]]}},{"type":"Feature","properties":{"identificatie":"0003100000117547","bouwjaar":1964,"status":"Pand in gebruik","gebruiksdoel":"","aantal_verblijfsobjecten":0},"bbox":[6.860035056458066,53.31421988176423,6.860232206987459,53.31437683796618],"geometry":{"type":"Polygon","coordinates":[[[6.860172381260316,53.31421988176423],[6.860232206987459,53.31435503427575],[6.8600948817858685,53.31437683796618],[6.860035056458066,53.31424168538566],[6.860172381260316,53.31421988176423]]]}},{"type":"Feature","properties":{"identificatie":"0003100000117551","bouwjaar":2000,"status":"Pand in gebruik","gebruiksdoel":"","aantal_verblijfsobjecten":0},"bbox":[6.860487182109177,53.314444404568555,6.860754400013336,53.31476936071005],"geometry":{"type":"Polygon","coordinates":[[[6.860622356990956,53.314444404568555],[6.860754400013336,53.314748292722456],[6.860619224552241,53.31476936071005],[6.860487182109177,53.314465463423254],[6.860622356990956,53.314444404568555]]]}},{"type":"Feature","properties":{"identificatie":"0003100000117556","bouwjaar":1970,"status":"Pand in gebruik","gebruiksdoel":"bijeenkomstfunctie","oppervlakte_min":413,"oppervlakte_max":413,"aantal_verblijfsobjecten":1},"bbox":[6.86063819884015,53.314791387111356,6.861088872263598,53.31503504365591],"geometry":{"type":"Polygon","coordinates":[[[6.861088872263598,53.31498483383338],[6.860849938789362,53.315023332098555],[6.860777198763792,53.31503504365591],[6.860763906345804,53.31499870324179],[6.8607267452940865,53.315004245181434],[6.86063819884015,53.31481300945125],[6.860772410089027,53.314791387111356],[6.8607919814664005,53.31483493864396],[6.860819107053898,53.314895346196984],[6.861033191877094,53.31486086411056],[6.861088872263598,53.31498483383338]]]}},{"type":"Feature","properties":{"identificatie":"0003100000117560","bouwjaar":1969,"status":"Pand in gebruik","gebruiksdoel":"overige gebruiksfunctie","oppervlakte_min":21,"oppervlakte_max":21,"aantal_verblijfsobjecten":1},"bbox":[6.874908513897248,53.315868433526326,6.875007869159124,53.31591435076865],"geometry":{"type":"Polygon","coordinates":[[[6.875007179421982,53.31590239389336],[6.875007869159124,53.315904551119935],[6.874919668527321,53.31591435076865],[6.874908513897248,53.31587812915814],[6.874996297863655,53.315868433526326],[6.875007179421982,53.31590239389336]]]}},{"type":"Feature","properties":{"identificatie":"0003100000117561","bouwjaar":1993,"status":"Pand in gebruik","gebruiksdoel":"overige gebruiksfunctie","oppervlakte_min":8,"oppervlakte_max":8,"aantal_verblijfsobjecten":1},"bbox":[6.85038485534429,53.316287983543994,6.8504411587496055,53.31632677060092],"geometry":{"type":"Polygon","coordinates":[[[6.850420026403892,53.316287983543994],[6.8504411587496055,53.31631768739502],[6.850405901326934,53.31632677060092],[6.85038485534429,53.31629695785433],[6.850420026403892,53.316287983543994]]]}},{"type":"Feature","properties":{"identificatie":"0003100000117564","bouwjaar":1964,"status":"Pand in gebruik","gebruiksdoel":"overige gebruiksfunctie","oppervlakte_min":15,"oppervlakte_max":15,"aantal_verblijfsobjecten":1},"bbox":[6.862525982365288,53.316253397131646,6.862622070734252,53.31629241923412],"geometry":{"type":"Polygon","coordinates":[[[6.862610004960448,53.316253397131646],[6.862621990197316,53.31627692059377],[6.862622070734252,53.31627708136315],[6.862586248606032,53.31628362291417],[6.862538048097342,53.31629241923412],[6.862534958934121,53.31628634629557],[6.862525982365288,53.316268734994146],[6.862610004960448,53.316253397131646]]]}},{"type":"Feature","properties":{"identificatie":"0003100000117570","bouwjaar":1965,"status":"Sloopvergunning verleend","gebruiksdoel":"overige gebruiksfunctie","oppervlakte_min":16,"oppervlakte_max":16,"aantal_verblijfsobjecten":1},"bbox":[6.868409560672775,53.316436312090076,6.868457204181111,53.316492067345905],"geometry":{"type":"Polygon","coordinates":[[[6.868453981811178,53.316436312090076],[6.868457204181111,53.316491647555736],[6.868412198277832,53.316492067345905],[6.868409560672775,53.316436715687274],[6.868453981811178,53.316436312090076]]]}},{"type":"Feature","properties":{"identificatie":"0003100000117571","bouwjaar":1968,"status":"Pand in gebruik","gebruiksdoel":"overige gebruiksfunctie","oppervlakte_min":23,"oppervlakte_max":23,"aantal_verblijfsobjecten":1},"bbox":[6.868746377553076,53.31643407788156,6.868810653524364,53.316489296807866],"geometry":{"type":"Polygon","coordinates":[[[6.868747849670272,53.316489296807866],[6.868746377553076,53.31643555735547],[6.8688102704911245,53.31643407788156],[6.868810653524364,53.316488001502215],[6.868747849670272,53.316489296807866]]]}},{"type":"Feature","properties":{"identificatie":"0003100000117573","bouwjaar":2006,"status":"Pand in gebruik","gebruiksdoel":"overige gebruiksfunctie","oppervlakte_min":12,"oppervlakte_max":12,"aantal_verblijfsobjecten":1},"bbox":[6.806196365320445,53.31722550176668,6.806248739396715,53.3172607391554],"geometry":{"type":"Polygon","coordinates":[[[6.806245830194751,53.31722550176668],[6.806248739396715,53.31725916663654],[6.806199268569001,53.3172607391554],[6.806196365320445,53.31722725394351],[6.806245830194751,53.31722550176668]]]}},{"type":"Feature","properties":{"identificatie":"0003100000117574","bouwjaar":2005,"status":"Pand in gebruik","gebruiksdoel":"woonfunctie","oppervlakte_min":144,"oppervlakte_max":144,"aantal_verblijfsobjecten":1},"bbox":[6.872103871490017,53.31633584111512,6.872321809190655,53.31641258735249],"geometry":{"type":"Polygon","coordinates":[[[6.872321809190655,53.31639012427477],[6.872271989223924,53.31639542178778],[6.872121312545215,53.31641258735249],[6.872103871490017,53.31635804766491],[6.872254784586249,53.31634078034729],[6.8722550880197995,53.3163417471476],[6.872306882854063,53.31633584111512],[6.8723149617597885,53.316361254160604],[6.872321809190655,53.31639012427477]]]}},{"type":"Feature","properties":{"identificatie":"0003100000117575","bouwjaar":1946,"status":"Pand in gebruik","gebruiksdoel":"overige gebruiksfunctie","oppervlakte_min":8,"oppervlakte_max":8,"aantal_verblijfsobjecten":1},"bbox":[6.817063712669172,53.31733050967799,6.817106270835126,53.317365403344866],"geometry":{"type":"Polygon","coordinates":[[[6.817098925266756,53.317365403344866],[6.817063712669172,53.31736249721909],[6.817070905273183,53.31733050967799],[6.817106270835126,53.31733350384667],[6.817098925266756,53.317365403344866]]]}},{"type":"Feature","properties":{"identificatie":"0003100000117577","bouwjaar":1996,"status":"Pand in gebruik","gebruiksdoel":"woonfunctie","oppervlakte_min":113,"oppervlakte_max":113,"aantal_verblijfsobjecten":1},"bbox":[6.849564055127898,53.31698787495644,6.849765000538064,53.31709135608422],"geometry":{"type":"Polygon","coordinates":[[[6.849748513129721,53.31700497712476],[6.849765000538064,53.317081773079984],[6.84963694146567,53.31709135608422],[6.849630118783651,53.317059231379496],[6.849579166956744,53.31706311335549],[6.849564055127898,53.316991908234705],[6.849617102702796,53.31698787495644],[6.849622765000365,53.317014549971745],[6.849748513129721,53.31700497712476]]]}},{"type":"Feature","properties":{"identificatie":"0003100000117578","bouwjaar":1966,"status":"Pand in gebruik","gebruiksdoel":"woonfunctie","oppervlakte_min":246,"oppervlakte_max":246,"aantal_verblijfsobjecten":1},"bbox":[6.866833783931182,53.316788534437066,6.867040394706094,53.31690132652116],"geometry":{"type":"Polygon","coordinates":[[[6.867028773344564,53.316788534437066],[6.867040394706094,53.31689360595485],[6.866845389818799,53.31690132652116],[6.866833783931182,53.31679625479811],[6.867028773344564,53.316788534437066]]]}},{"type":"Feature","properties":{"identificatie":"0003100000117579","bouwjaar":1648,"status":"Pand in gebruik","gebruiksdoel":"logiesfunctie,onderwijsfunctie","oppervlakte_min":390,"oppervlakte_max":1418,"aantal_verblijfsobjecten":2},"bbox":[6.806616122892369,53.31733073541177,6.807371445211303,53.31765334836563],"geometry":{"type":"Polygon","coordinates":[[[6.806755300166324,53.31734678840118],[6.806770801219735,53.31734493385918],[6.806817031066173,53.317345196673315],[6.80684669644749,53.31735284426794],[6.806878567331097,53.31737277725413],[6.806890421737324,53.317390969620185],[6.806889954009148,53.3174359972966],[6.807006121516162,53.31743642252157],[6.807006986615527,53.31734879433997],[6.807103625895341,53.317348641345944],[6.807103487017552,53.31733075993483],[6.807151208075073,53.31733073541177],[6.807151194002784,53.31734852876521],[6.8072500863965715,53.31734843890237],[6.807249369774401,53.31744055856443],[6.807242916352201,53.31744054493793],[6.807242741399751,53.31746256382678],[6.807341345872119,53.31746283675055],[6.807341236222196,53.31747317247276],[6.807371403205448,53.31747326538801],[6.807371445211303,53.31752008433815],[6.807341428206297,53.317519989650776],[6.807341321516231,53.3175304152024],[6.807184180016353,53.31752984528235],[6.807181509412282,53.31753077547608],[6.807186845626324,53.31753331851179],[6.807185143157789,53.31753630415422],[6.807178345306318,53.31753494662423],[6.807148425756423,53.317551475683814],[6.807151844380138,53.317555029883444],[6.807147226588124,53.317556072942594],[6.807144702112725,53.317552328451406],[6.807104172467026,53.31755199842874],[6.807101596559256,53.317555803168474],[6.807096904782245,53.31755460048528],[6.807099633660861,53.317550883803335],[6.807071286780142,53.31753315586367],[6.807065033662863,53.3175346675592],[6.80706314179221,53.317531904104285],[6.807069394909156,53.31753039240883],[6.807069485734481,53.3175285940445],[6.807063182310132,53.31752857863644],[6.807033015288074,53.31752848564403],[6.8068851804002515,53.31752798513414],[6.806887973721656,53.317462440869846],[6.8068388757902,53.3174616727672],[6.806835974694008,53.31753305949977],[6.8068433311555685,53.31753315234774],[6.806857892889009,53.31754241614961],[6.806856733068443,53.31759832560999],[6.80684096856796,53.31762088807026],[6.806800916983867,53.31764418668009],[6.806763251066506,53.31765334836563],[6.806707708340758,53.317652836046776],[6.806670477115457,53.31764330074028],[6.806631572473449,53.31761940685245],[6.806616122892369,53.317596853551926],[6.806619348001998,53.317416816738735],[6.806672037260906,53.31741727292763],[6.806672156816913,53.31741178977695],[6.806687176851341,53.31740307527288],[6.806694683301126,53.317403166358574],[6.806695124798209,53.31738923213613],[6.806698048850894,53.31738004939236],[6.806705854632634,53.317371914334046],[6.8067171771663375,53.317363935447275],[6.80672855206239,53.317357546543995],[6.806736845078297,53.31735326990634],[6.806755300166324,53.31734678840118]]]}},{"type":"Feature","properties":{"identificatie":"0003100000117580","bouwjaar":1985,"status":"Pand in gebruik","gebruiksdoel":"woonfunctie","oppervlakte_min":51,"oppervlakte_max":51,"aantal_verblijfsobjecten":1},"bbox":[6.847345317450706,53.31716751490434,6.847439165130616,53.31722375689047],"geometry":{"type":"Polygon","coordinates":[[[6.847439165130616,53.317169836519405],[6.847435364373574,53.31722375689047],[6.847345317450706,53.3172213909056],[6.847349164844285,53.31716751490434],[6.847439165130616,53.317169836519405]]]}},{"type":"Feature","properties":{"identificatie":"0003100000117581","bouwjaar":1953,"status":"Pand in gebruik","gebruiksdoel":"woonfunctie","oppervlakte_min":211,"oppervlakte_max":211,"aantal_verblijfsobjecten":1},"bbox":[6.809722135135167,53.3176032661609,6.809907271961921,53.31771007770355],"geometry":{"type":"Polygon","coordinates":[[[6.809847259551174,53.31771007770355],[6.809753410351622,53.317685666839324],[6.809722135135167,53.31767746387483],[6.809752591973537,53.31763586456918],[6.809783867461936,53.31764407650893],[6.809813719965917,53.3176032661609],[6.809907271961921,53.31762777035984],[6.809847259551174,53.31771007770355]]]}},{"type":"Feature","properties":{"identificatie":"0003100000117582","bouwjaar":1975,"status":"Pand in gebruik","gebruiksdoel":"industriefunctie,winkelfunctie","oppervlakte_min":357,"oppervlakte_max":357,"aantal_verblijfsobjecten":1},"bbox":[6.860311667026257,53.316889020263375,6.86064001547216,53.31718519485803],"geometry":{"type":"Polygon","coordinates":[[[6.86048190634822,53.316889020263375],[6.86064001547216,53.31714790777276],[6.860469760267319,53.31718519485803],[6.860311667026257,53.31692630694042],[6.86048190634822,53.316889020263375]]]}},{"type":"Feature","properties":{"identificatie":"0003100000117584","bouwjaar":1954,"status":"Pand in gebruik","gebruiksdoel":"","aantal_verblijfsobjecten":0},"bbox":[6.809583348683278,53.31774429709758,6.809860114121641,53.31792197635338],"geometry":{"type":"Polygon","coordinates":[[[6.809763911266133,53.31792197635338],[6.809583348683278,53.317875676055344],[6.809681811059304,53.31774429709758],[6.809860114121641,53.31779035439468],[6.809763911266133,53.31792197635338]]]}},{"type":"Feature","properties":{"identificatie":"0003100000117585","bouwjaar":1985,"status":"Pand in gebruik","gebruiksdoel":"woonfunctie","oppervlakte_min":51,"oppervlakte_max":51,"aantal_verblijfsobjecten":1},"bbox":[6.846028333702277,53.31753499659113,6.846151936720687,53.317608958651455],"geometry":{"type":"Polygon","coordinates":[[[6.846028333702277,53.3175622616259],[6.8461060778992575,53.31753499659113],[6.846151936720687,53.31758190680836],[6.846073990158983,53.317608958651455],[6.846028333702277,53.3175622616259]]]}},{"type":"Feature","properties":{"identificatie":"0003100000117587","bouwjaar":1992,"status":"Pand in gebruik","gebruiksdoel":"overige gebruiksfunctie","oppervlakte_min":35,"oppervlakte_max":35,"aantal_verblijfsobjecten":1},"bbox":[6.859157466078228,53.31748962726509,6.8592695463587,53.31757565732114],"geometry":{"type":"Polygon","coordinates":[[[6.859221656577108,53.31748962726509],[6.8592695463587,53.317559989544826],[6.859205355772872,53.31757565732114],[6.859157466078228,53.317505295015835],[6.859221656577108,53.31748962726509]]]}},{"type":"Feature","properties":{"identificatie":"0003100000117588","bouwjaar":1985,"status":"Pand in gebruik","gebruiksdoel":"woonfunctie","oppervlakte_min":51,"oppervlakte_max":51,"aantal_verblijfsobjecten":1},"bbox":[6.846241483999785,53.31766408884143,6.846335082514216,53.31772000410292],"geometry":{"type":"Polygon","coordinates":[[[6.846241483999785,53.31771799915839],[6.846244461237125,53.31766408884143],[6.846335082514216,53.31766610719774],[6.846331729757685,53.31772000410292],[6.846241483999785,53.31771799915839]]]}},{"type":"Feature","properties":{"identificatie":"0003100000117589","bouwjaar":2000,"status":"Pand in gebruik","gebruiksdoel":"bijeenkomstfunctie","oppervlakte_min":85,"oppervlakte_max":85,"aantal_verblijfsobjecten":1},"bbox":[6.812296861126526,53.31817230694232,6.812453659561343,53.31829217809503],"geometry":{"type":"Polygon","coordinates":[[[6.812449483107885,53.31818813725992],[6.812453659561343,53.31818872577967],[6.812412719276899,53.31829217809503],[6.812403461517681,53.31829086799733],[6.812296861126526,53.31827576749145],[6.8123377413720965,53.31817230694232],[6.812449483107885,53.31818813725992]]]}},{"type":"Feature","properties":{"identificatie":"0003100000117598","bouwjaar":1994,"status":"Pand in gebruik","gebruiksdoel":"","aantal_verblijfsobjecten":0},"bbox":[6.81148154691795,53.31877864550792,6.811569933229447,53.31883110879158],"geometry":{"type":"Polygon","coordinates":[[[6.811495796362219,53.31877864550792],[6.811569933229447,53.318787283721015],[6.811555683857908,53.31883110879158],[6.81148154691795,53.3188224705701],[6.811495796362219,53.31877864550792]]]}},{"type":"Feature","properties":{"identificatie":"0003100000117599","bouwjaar":1994,"status":"Pand in gebruik","gebruiksdoel":"","aantal_verblijfsobjecten":0},"bbox":[6.8114713601229075,53.318897842111944,6.811548479892865,53.31894518019871],"geometry":{"type":"Polygon","coordinates":[[[6.811476819156776,53.318897842111944],[6.811548479892865,53.31890102793711],[6.811543020635244,53.31894518019871],[6.8114713601229075,53.31894200335357],[6.811476819156776,53.318897842111944]]]}},{"type":"Feature","properties":{"identificatie":"0003100000117600","bouwjaar":1986,"status":"Pand in gebruik","gebruiksdoel":"","aantal_verblijfsobjecten":0},"bbox":[6.81223086607553,53.31885490241251,6.812360941264683,53.31895642601908],"geometry":{"type":"Polygon","coordinates":[[[6.81223086607553,53.31894181768516],[6.812268617353996,53.31885490241251],[6.812360941264683,53.31886937241748],[6.81232289458438,53.31895642601908],[6.812312469682152,53.318954770292294],[6.812269382213708,53.31894793018139],[6.812258550193907,53.31894621637113],[6.81223086607553,53.31894181768516]]]}},{"type":"Feature","properties":{"identificatie":"0003100000117601","bouwjaar":1983,"status":"Pand in gebruik","gebruiksdoel":"woonfunctie","oppervlakte_min":42,"oppervlakte_max":42,"aantal_verblijfsobjecten":16},"bbox":[6.8456642722425105,53.318469646445465,6.846321304422866,53.318562765389196],"geometry":{"type":"Polygon","coordinates":[[[6.8456642722425105,53.31850184318837],[6.845666334236115,53.318469646445465],[6.846321304422866,53.31848434411238],[6.84631869359525,53.31852646864599],[6.846316455740157,53.318562765389196],[6.845673500572477,53.3185483712382],[6.8456763622305745,53.31850210988331],[6.8456642722425105,53.31850184318837]]]}},{"type":"Feature","properties":{"identificatie":"0003100000117602","bouwjaar":1983,"status":"Pand in gebruik","gebruiksdoel":"","aantal_verblijfsobjecten":0},"bbox":[6.845627767543267,53.318569222079695,6.845645256409651,53.31858979677817],"geometry":{"type":"Polygon","coordinates":[[[6.845645256409651,53.318569652495064],[6.845644062169541,53.31858979677817],[6.845627767543267,53.31858945528086],[6.845628883744849,53.318569222079695],[6.845645256409651,53.318569652495064]]]}},{"type":"Feature","properties":{"identificatie":"0003100000117603","bouwjaar":1983,"status":"Pand in gebruik","gebruiksdoel":"","aantal_verblijfsobjecten":0},"bbox":[6.845727638523509,53.31857151503231,6.845745130384701,53.31859191006138],"geometry":{"type":"Polygon","coordinates":[[[6.845745130384701,53.3185718556058],[6.845743933151243,53.31859191006138],[6.845727638523509,53.31859156857767],[6.84572876075819,53.31857151503231],[6.845745130384701,53.3185718556058]]]}},{"type":"Feature","properties":{"identificatie":"0003100000117604","bouwjaar":1983,"status":"Pand in gebruik","gebruiksdoel":"","aantal_verblijfsobjecten":0},"bbox":[6.845905755865832,53.31857537380114,6.845923249166967,53.31859576880732],"geometry":{"type":"Polygon","coordinates":[[[6.845906954544178,53.31857537380114],[6.845923249166967,53.31857571526054],[6.845922127022781,53.31859576880732],[6.845905755865832,53.31859538334378],[6.845906954544178,53.31857537380114]]]}},{"type":"Feature","properties":{"identificatie":"0003100000117605","bouwjaar":1983,"status":"Pand in gebruik","gebruiksdoel":"","aantal_verblijfsobjecten":0},"bbox":[6.846067578604387,53.31857880103992,6.846085295331499,53.31859919602527],"geometry":{"type":"Polygon","coordinates":[[[6.846068850693622,53.31857880103992],[6.846085295331499,53.31857914065682],[6.846084023249921,53.31859919602527],[6.846067578604387,53.318598856408244],[6.846068850693622,53.31857880103992]]]}},{"type":"Feature","properties":{"identificatie":"0003100000117606","bouwjaar":1994,"status":"Pand in gebruik","gebruiksdoel":"","aantal_verblijfsobjecten":0},"bbox":[6.811413960735265,53.319016826202585,6.81149465146567,53.31906575403804],"geometry":{"type":"Polygon","coordinates":[[[6.8114257188282945,53.319016826202585],[6.81149465146567,53.31902373781893],[6.811482893438114,53.31906575403804],[6.811413960735265,53.31905884241533],[6.8114257188282945,53.319016826202585]]]}},{"type":"Feature","properties":{"identificatie":"0003100000117607","bouwjaar":1983,"status":"Pand in gebruik","gebruiksdoel":"","aantal_verblijfsobjecten":0},"bbox":[6.8460052380052385,53.318647144726256,6.846039446052419,53.3186576170751],"geometry":{"type":"Polygon","coordinates":[[[6.846039446052419,53.318647814872165],[6.846038877405109,53.3186576170751],[6.8460052380052385,53.318656946929046],[6.846005806660198,53.318647144726256],[6.846039446052419,53.318647814872165]]]}},{"type":"Feature","properties":{"identificatie":"0003100000117609","bouwjaar":1981,"status":"Pand in gebruik","gebruiksdoel":"overige gebruiksfunctie","oppervlakte_min":17,"oppervlakte_max":17,"aantal_verblijfsobjecten":1},"bbox":[6.848578296190164,53.318708623709824,6.8486370351182915,53.318759164528615],"geometry":{"type":"Polygon","coordinates":[[[6.848583985269623,53.318759164528615],[6.848578296190164,53.31871088621645],[6.848631345979707,53.318708623709824],[6.8486370351182915,53.31875690201924],[6.848583985269623,53.318759164528615]]]}},{"type":"Feature","properties":{"identificatie":"0003100000117610","bouwjaar":1994,"status":"Pand in gebruik","gebruiksdoel":"","aantal_verblijfsobjecten":0},"bbox":[6.812148646897615,53.319116465270284,6.8122600032533525,53.31920108157655],"geometry":{"type":"Polygon","coordinates":[[[6.812180437620347,53.319116465270284],[6.8122600032533525,53.31912904666927],[6.812228212951785,53.31920108157655],[6.812148646897615,53.31918849117446],[6.812180437620347,53.319116465270284]]]}},{"type":"Feature","properties":{"identificatie":"0003100000117611","bouwjaar":1983,"status":"Pand in gebruik","gebruiksdoel":"","aantal_verblijfsobjecten":0},"bbox":[6.845994349900267,53.31883087138259,6.846028559615702,53.31884143356137],"geometry":{"type":"Polygon","coordinates":[[[6.845994349900267,53.31884071849886],[6.845994917039435,53.31883087138259],[6.846028559615702,53.318831631359096],[6.8460279909639,53.31884143356137],[6.845994349900267,53.31884071849886]]]}},{"type":"Feature","properties":{"identificatie":"0003100000117613","bouwjaar":1983,"status":"Pand in gebruik","gebruiksdoel":"","aantal_verblijfsobjecten":0},"bbox":[6.845987924852917,53.318938112631024,6.84602213161406,53.31894863080695],"geometry":{"type":"Polygon","coordinates":[[[6.84602213161406,53.31893878369089],[6.846021564479935,53.31894863080695],[6.845987924852917,53.31894796065717],[6.8459885670017195,53.318938112631024],[6.84602213161406,53.31893878369089]]]}},{"type":"Feature","properties":{"identificatie":"0003100000117614","bouwjaar":1994,"status":"Pand in gebruik","gebruiksdoel":"","aantal_verblijfsobjecten":0},"bbox":[6.812045398489661,53.31934783001744,6.812157650196992,53.31943322236066],"geometry":{"type":"Polygon","coordinates":[[[6.812077391413384,53.31934783001744],[6.812157650196992,53.31936048414811],[6.812125657696782,53.31943322236066],[6.812045398489661,53.31942055922654],[6.812077391413384,53.31934783001744]]]}},{"type":"Feature","properties":{"identificatie":"0003100000117616","bouwjaar":1983,"status":"Pand in gebruik","gebruiksdoel":"woonfunctie","oppervlakte_min":42,"oppervlakte_max":44,"aantal_verblijfsobjecten":18},"bbox":[6.846156274119348,53.31860005863009,6.846314064846083,53.31906273784852],"geometry":{"type":"Polygon","coordinates":[[[6.846281924701008,53.31860224891152],[6.846314064846083,53.31860296413751],[6.846286806872126,53.319043454518834],[6.846283653529937,53.31904340292822],[6.8462825072140205,53.31906273784852],[6.846259978899953,53.319062238449],[6.8462612282070205,53.319042399034096],[6.846156274119348,53.319040006377584],[6.846183251647014,53.31860005863009],[6.846215540889565,53.31860074511321],[6.84621555163343,53.31860061917159],[6.846281924701008,53.31860224891152]]]}},{"type":"Feature","properties":{"identificatie":"0003100000117617","bouwjaar":1991,"status":"Pand in gebruik","gebruiksdoel":"woonfunctie","oppervlakte_min":77,"oppervlakte_max":79,"aantal_verblijfsobjecten":14},"bbox":[6.873153152672315,53.31857363458708,6.873514103390469,53.31874174766956],"geometry":{"type":"Polygon","coordinates":[[[6.873395187631301,53.31857407279977],[6.873396744340511,53.31857395470129],[6.873398809848771,53.31857379436603],[6.873400830353654,53.31857363458708],[6.873404418657244,53.31859021535984],[6.873423979283934,53.31858864350887],[6.873514103390469,53.31867143672324],[6.8735126337658725,53.31867190422236],[6.873422831283487,53.318678945673774],[6.8734321945809445,53.3187215520155],[6.873171729213858,53.31874174766956],[6.873171174976473,53.31873916639167],[6.873184391594871,53.31873814928971],[6.873153152672315,53.318592971156086],[6.873395187631301,53.31857407279977]]]}},{"type":"Feature","properties":{"identificatie":"0003100000117618","bouwjaar":1930,"status":"Pand in gebruik","gebruiksdoel":"winkelfunctie","oppervlakte_min":338,"oppervlakte_max":338,"aantal_verblijfsobjecten":1},"bbox":[6.866787628409742,53.3193719627534,6.867129080194553,53.319579163704915],"geometry":{"type":"Polygon","coordinates":[[[6.866860618194545,53.31942118357185],[6.8668529454661105,53.31940446418535],[6.8670731792581625,53.3193719627534],[6.867129080194553,53.31953532398065],[6.866812704432817,53.319579163704915],[6.866787628409742,53.3195075350465],[6.8668130076800935,53.31950406839054],[6.866806815650652,53.31948545258811],[6.866881454492024,53.31947510698862],[6.866860618194545,53.31942118357185]]]}},{"type":"Feature","properties":{"identificatie":"0003100000117620","bouwjaar":1982,"status":"Pand in gebruik","gebruiksdoel":"overige gebruiksfunctie","oppervlakte_min":15,"oppervlakte_max":15,"aantal_verblijfsobjecten":1},"bbox":[6.870187325178162,53.31965877290311,6.870267976337239,53.319686174563834],"geometry":{"type":"Polygon","coordinates":[[[6.870267197909493,53.31967687452795],[6.870267976337239,53.31968205016467],[6.870190797593433,53.319686174563834],[6.870189980207587,53.319680738797274],[6.870187325178162,53.31966289729993],[6.870264503880622,53.31965877290311],[6.870267197909493,53.31967687452795]]]}},{"type":"Feature","properties":{"identificatie":"0003100000117621","bouwjaar":2002,"status":"Pand in gebruik","gebruiksdoel":"bijeenkomstfunctie,woonfunctie","oppervlakte_min":84,"oppervlakte_max":410,"aantal_verblijfsobjecten":8},"bbox":[6.856455448094982,53.31969943041047,6.856841153956639,53.31995363181296],"geometry":{"type":"Polygon","coordinates":[[[6.856455448094982,53.31970223633999],[6.856455622574872,53.31969943041047],[6.856841153956639,53.31970807170082],[6.8568254552593775,53.31995363181296],[6.856468227126405,53.31994544432854],[6.856480160660429,53.319760625313116],[6.856514121296968,53.31976144137965],[6.856517991963194,53.319703736500294],[6.856455448094982,53.31970223633999]]]}},{"type":"Feature","properties":{"identificatie":"0003100000117622","bouwjaar":1933,"status":"Pand in gebruik","gebruiksdoel":"overige gebruiksfunctie","oppervlakte_min":14,"oppervlakte_max":14,"aantal_verblijfsobjecten":1},"bbox":[6.86866556934407,53.31979009316039,6.868719789162312,53.31983718730573],"geometry":{"type":"Polygon","coordinates":[[[6.868712190494402,53.31979009316039],[6.868719789162312,53.319834321170866],[6.868673167964654,53.31983718730573],[6.86866556934407,53.31979295929215],[6.868712190494402,53.31979009316039]]]}},{"type":"Feature","properties":{"identificatie":"0003100000117623","bouwjaar":1982,"status":"Pand in gebruik","gebruiksdoel":"","aantal_verblijfsobjecten":0},"bbox":[6.859980293369257,53.31991912211113,6.860031323301361,53.31994483864598],"geometry":{"type":"Polygon","coordinates":[[[6.860031323301361,53.31992214269167],[6.860027251388178,53.31994483864598],[6.859980293369257,53.319941819350554],[6.85998447031859,53.31991912211113],[6.860031323301361,53.31992214269167]]]}},{"type":"Feature","properties":{"identificatie":"0003100000117624","bouwjaar":2005,"status":"Pand in gebruik","gebruiksdoel":"bijeenkomstfunctie","oppervlakte_min":38,"oppervlakte_max":38,"aantal_verblijfsobjecten":1},"bbox":[6.849272407931656,53.32000659601491,6.849417655198857,53.32009564302803],"geometry":{"type":"Polygon","coordinates":[[[6.84937665702389,53.32008546128159],[6.849345461783741,53.32009051370328],[6.849344885412075,53.32009564302803],[6.8493367722585505,53.32009538224769],[6.8493371986133695,53.320090254747626],[6.849309198462251,53.32008331623132],[6.849301843856728,53.32008771921109],[6.849294799801911,53.320083581222804],[6.849302151359873,53.32007908841535],[6.849283637239178,53.32006421624795],[6.8492746818885335,53.320065673144825],[6.849272407931656,53.32006057848737],[6.849281363281323,53.3200591215907],[6.849282829640667,53.320040411801955],[6.849274049381852,53.320038182097555],[6.849277629161121,53.32003310610939],[6.849286409419077,53.320035335813536],[6.849306131517965,53.32001945940196],[6.849300746809782,53.320015570827316],[6.849306796959122,53.32001253169066],[6.849312178619865,53.320016330436886],[6.849343563447515,53.32001244396457],[6.849344115437007,53.32000659601491],[6.849353434809375,53.320007021853584],[6.8493527297559185,53.32001278179986],[6.849383699741782,53.320018785531076],[6.849388975415856,53.32001503688914],[6.849394779706872,53.32001802170462],[6.849389504032941,53.32002177034683],[6.8494077882357995,53.32003871219376],[6.849415702596331,53.32003753754461],[6.849417655198857,53.320042007052166],[6.849409740837561,53.32004318170143],[6.849406810929793,53.32006298767609],[6.849415422895824,53.320064680226935],[6.849412737141048,53.32006956561435],[6.849404125174141,53.320067873063294],[6.849383766445347,53.32008267885241],[6.849388722450402,53.32008720169399],[6.849381613028525,53.32008998412349],[6.84937665702389,53.32008546128159]]]}},{"type":"Feature","properties":{"identificatie":"0003100000117625","bouwjaar":1970,"status":"Pand in gebruik","gebruiksdoel":"overige gebruiksfunctie","oppervlakte_min":16,"oppervlakte_max":16,"aantal_verblijfsobjecten":1},"bbox":[6.856254197694888,53.32256247704947,6.856343357436928,53.322621027549154],"geometry":{"type":"Polygon","coordinates":[[[6.856343357436928,53.32257883573976],[6.856288197415971,53.322621027549154],[6.856254197694888,53.32260548297438],[6.8563075889468905,53.32256247704947],[6.856343357436928,53.32257883573976]]]}},{"type":"Feature","properties":{"identificatie":"0003100000117626","bouwjaar":1963,"status":"Pand in gebruik","gebruiksdoel":"overige gebruiksfunctie","oppervlakte_min":18,"oppervlakte_max":18,"aantal_verblijfsobjecten":1},"bbox":[6.8613581974757,53.31990464606425,6.861456601674394,53.319957574732136],"geometry":{"type":"Polygon","coordinates":[[[6.861429550324696,53.319957574732136],[6.8613581974757,53.31993373678071],[6.8613854173129845,53.31990464606425],[6.861456601674394,53.31992794687362],[6.861429550324696,53.319957574732136]]]}},{"type":"Feature","properties":{"identificatie":"0003100000117627","bouwjaar":1900,"status":"Pand in gebruik","gebruiksdoel":"gezondheidszorgfunctie,woonfunctie","oppervlakte_min":395,"oppervlakte_max":395,"aantal_verblijfsobjecten":1},"bbox":[6.855864726157829,53.31983788168162,6.856128933558447,53.320031442595344],"geometry":{"type":"Polygon","coordinates":[[[6.8560338567926085,53.320031442595344],[6.855864726157829,53.320022904933296],[6.855874067235997,53.31995790808486],[6.855926236403248,53.3199605957172],[6.855934343549988,53.319903432216755],[6.855913445294228,53.319902339568806],[6.85592280464269,53.31983788168162],[6.856128933558447,53.31984875298445],[6.856111250247935,53.319972803416164],[6.856043286404462,53.31996905074321],[6.8560338567926085,53.320031442595344]]]}},{"type":"Feature","properties":{"identificatie":"0003100000117628","bouwjaar":1982,"status":"Pand in gebruik","gebruiksdoel":"","aantal_verblijfsobjecten":0},"bbox":[6.860008730270754,53.319956791163484,6.8600595406936895,53.31998232380487],"geometry":{"type":"Polygon","coordinates":[[[6.860012546861286,53.319956791163484],[6.8600595406936895,53.319959540411666],[6.860055666883975,53.31998232380487],[6.860008730270754,53.31997949297518],[6.860012546861286,53.319956791163484]]]}},{"type":"Feature","properties":{"identificatie":"0003100000117629","bouwjaar":1990,"status":"Pand in gebruik","gebruiksdoel":"overige gebruiksfunctie","oppervlakte_min":16,"oppervlakte_max":16,"aantal_verblijfsobjecten":1},"bbox":[6.860416065264665,53.31996984887908,6.860521176341958,53.3200173584848],"geometry":{"type":"Polygon","coordinates":[[[6.860521176341958,53.319978147109005],[6.860514852770164,53.32000257811938],[6.860512276838477,53.32001502908058],[6.860416065264665,53.3200173584848],[6.86042146839953,53.319994098023265],[6.8604276181445645,53.31996984887908],[6.860521176341958,53.319978147109005]]]}},{"type":"Feature","properties":{"identificatie":"0003100000117631","bouwjaar":1925,"status":"Pand in gebruik","gebruiksdoel":"woonfunctie","oppervlakte_min":350,"oppervlakte_max":350,"aantal_verblijfsobjecten":1},"bbox":[6.856196946883375,53.31989802229868,6.8564530695340125,53.320146152694505],"geometry":{"type":"Polygon","coordinates":[[[6.856379734510718,53.32004476660528],[6.856414392546139,53.3200515052866],[6.8564530695340125,53.32005903058474],[6.856405462787927,53.320146152694505],[6.856287772274326,53.32012332740142],[6.856296531357087,53.32010731420467],[6.856231705360194,53.32009435703157],[6.8562632117789155,53.320041221092026],[6.8562647241999475,53.320041562070436],[6.856276508089175,53.320021827433216],[6.856196946883375,53.32001246519665],[6.856219648088142,53.319934364454724],[6.856224901131136,53.319934812493095],[6.856235143116789,53.31989802229868],[6.85628144873107,53.31990260569658],[6.856378828065767,53.31991076159324],[6.856410829744056,53.31991398306138],[6.856402221856731,53.31994983667417],[6.856398413405551,53.319965789374706],[6.856412226307811,53.31996683373723],[6.856401838473435,53.32000946697248],[6.856379734510718,53.32004476660528]]]}},{"type":"Feature","properties":{"identificatie":"0003100000117632","bouwjaar":1925,"status":"Pand in gebruik","gebruiksdoel":"woonfunctie","oppervlakte_min":247,"oppervlakte_max":247,"aantal_verblijfsobjecten":1},"bbox":[6.862590071800261,53.319960100065046,6.8627974910668375,53.32009942802792],"geometry":{"type":"Polygon","coordinates":[[[6.8627974910668375,53.320049465251415],[6.862794024046431,53.32009942802792],[6.862617304085374,53.32009502796657],[6.862621107677845,53.32004042401226],[6.862621850297257,53.32002967598491],[6.862604606216197,53.32002924059859],[6.86260504517452,53.32002277389031],[6.862590071800261,53.32001589424461],[6.862591228371627,53.31999926394108],[6.862607880452981,53.31999249040507],[6.86260837565935,53.319985474827526],[6.862660407576928,53.31998676831235],[6.862660677917898,53.319982828890495],[6.862706761482536,53.319983970700854],[6.862708420510722,53.319960100065046],[6.862780430141571,53.31996189416714],[6.862778700589221,53.319986772162196],[6.862774389241367,53.32004889510259],[6.8627974910668375,53.320049465251415]]]}},{"type":"Feature","properties":{"identificatie":"0003100000117633","bouwjaar":1953,"status":"Pand in gebruik","gebruiksdoel":"woonfunctie","oppervlakte_min":324,"oppervlakte_max":324,"aantal_verblijfsobjecten":1},"bbox":[6.856659492002065,53.320029359246796,6.8568198254764745,53.32017431506586],"geometry":{"type":"Polygon","coordinates":[[[6.856814340967442,53.32017431506586],[6.856659492002065,53.320170905971594],[6.8566675724358,53.320029359246796],[6.856686192946226,53.32002967082016],[6.856683759664337,53.3200727460347],[6.8568198254764745,53.320075486072476],[6.856814340967442,53.32017431506586]]]}},{"type":"Feature","properties":{"identificatie":"0003100000117634","bouwjaar":1862,"status":"Pand in gebruik","gebruiksdoel":"woonfunctie","oppervlakte_min":947,"oppervlakte_max":947,"aantal_verblijfsobjecten":1},"bbox":[6.836362995055255,53.31996813286884,6.836900621649111,53.320422248900634],"geometry":{"type":"Polygon","coordinates":[[[6.836455166823063,53.320422248900634],[6.836362995055255,53.32013013972121],[6.836412752090727,53.32012450744412],[6.8364108884243295,53.320118625783884],[6.8363871027094545,53.32004325522232],[6.836410067588341,53.32004065985383],[6.836393184699149,53.31998713312491],[6.836561129374172,53.31996813286884],[6.836579642861452,53.32002685208385],[6.836550159257656,53.320030182093845],[6.836571729062898,53.320098560889136],[6.836653361812919,53.32008932701948],[6.836668263057553,53.32013657807297],[6.836714475481161,53.32028302195126],[6.836867141187626,53.32026575118825],[6.836900621649111,53.32037186436902],[6.836455166823063,53.320422248900634]]]}},{"type":"Feature","properties":{"identificatie":"0003100000117635","bouwjaar":1982,"status":"Pand in gebruik","gebruiksdoel":"woonfunctie","oppervlakte_min":90,"oppervlakte_max":90,"aantal_verblijfsobjecten":1},"bbox":[6.859783298221319,53.31989603500945,6.8599064170924695,53.31995068326968],"geometry":{"type":"Polygon","coordinates":[[[6.859783298221319,53.31994531107064],[6.8597894035695495,53.31989603500945],[6.859874252149722,53.31989980338174],[6.8599064170924695,53.319901206641646],[6.8599000786040145,53.31995068326968],[6.859783298221319,53.31994531107064]]]}},{"type":"Feature","properties":{"identificatie":"0003100000117636","bouwjaar":1938,"status":"Pand in gebruik","gebruiksdoel":"overige gebruiksfunctie","oppervlakte_min":12,"oppervlakte_max":12,"aantal_verblijfsobjecten":1},"bbox":[6.835777119586324,53.32041805957035,6.835822563234727,53.32045997503627],"geometry":{"type":"Polygon","coordinates":[[[6.835818382959305,53.32045997503627],[6.835777119586324,53.32045845031525],[6.835781299900325,53.32041805957035],[6.835822563234727,53.32041958429011],[6.835818382959305,53.32045997503627]]]}},{"type":"Feature","properties":{"identificatie":"0003100000117637","bouwjaar":1998,"status":"Pand in gebruik","gebruiksdoel":"kantoorfunctie","oppervlakte_min":642,"oppervlakte_max":642,"aantal_verblijfsobjecten":1},"bbox":[6.863288981038624,53.319955359425784,6.863785970574366,53.320123101918405],"geometry":{"type":"Polygon","coordinates":[[[6.863785970574366,53.31995989060126],[6.863780753810902,53.32003540566922],[6.863779554599491,53.320035447358975],[6.863776167296602,53.32003557883112],[6.863776146526544,53.32003584868243],[6.863770048568347,53.32011280343136],[6.8637183106565445,53.32011133607004],[6.863717378061488,53.320123101918405],[6.863664588480054,53.32012160251845],[6.86366450231933,53.32012259209602],[6.863288981038624,53.32011191762804],[6.863297998322263,53.319996168120475],[6.863491325558304,53.320001261883576],[6.863488185706645,53.32003709382973],[6.863588457135119,53.32004024781255],[6.863589276292529,53.3200308647913],[6.863608973043062,53.32003148559037],[6.863615654960545,53.319955359425784],[6.863784888916103,53.3199598589548],[6.863785970574366,53.31995989060126]]]}},{"type":"Feature","properties":{"identificatie":"0003100000117638","bouwjaar":1937,"status":"Pand in gebruik","gebruiksdoel":"overige gebruiksfunctie","oppervlakte_min":21,"oppervlakte_max":21,"aantal_verblijfsobjecten":1},"bbox":[6.855184026412846,53.320203385780815,6.855274748140903,53.320251543035624],"geometry":{"type":"Polygon","coordinates":[[[6.8552670934073525,53.320251543035624],[6.855184026412846,53.32024500876425],[6.85518907542827,53.32022140241154],[6.855217667576419,53.320223659343235],[6.855222079699494,53.320203385780815],[6.855274748140903,53.3202075054446],[6.855270186024274,53.32022778084083],[6.855271842342004,53.32022794034383],[6.8552670934073525,53.320251543035624]]]}},{"type":"Feature","properties":{"identificatie":"0003100000117639","bouwjaar":1986,"status":"Pand in gebruik","gebruiksdoel":"","aantal_verblijfsobjecten":0},"bbox":[6.855721888782886,53.32024771169345,6.855757955124495,53.32027607651514],"geometry":{"type":"Polygon","coordinates":[[[6.855757955124495,53.320248710742995],[6.855755600904329,53.32027607651514],[6.855721888782886,53.32027507746508],[6.855724243024434,53.32024771169345],[6.855757955124495,53.320248710742995]]]}},{"type":"Feature","properties":{"identificatie":"0003100000117640","bouwjaar":1900,"status":"Pand in gebruik","gebruiksdoel":"woonfunctie","oppervlakte_min":227,"oppervlakte_max":267,"aantal_verblijfsobjecten":2},"bbox":[6.855838235756519,53.32015547247464,6.85616702972031,53.32029090770388],"geometry":{"type":"Polygon","coordinates":[[[6.855838322097433,53.32027862459969],[6.855848682996342,53.32015547247464],[6.8561217941738,53.320163701184114],[6.85616702972031,53.320165062553635],[6.856156911605194,53.32029090770388],[6.855969719581092,53.32028528684349],[6.855969805918993,53.32028429727073],[6.855838235756519,53.32027961417237],[6.855838322097433,53.32027862459969]]]}},{"type":"Feature","properties":{"identificatie":"0003100000117641","bouwjaar":1925,"status":"Pand in gebruik","gebruiksdoel":"woonfunctie","oppervlakte_min":49,"oppervlakte_max":51,"aantal_verblijfsobjecten":4},"bbox":[6.859220022393041,53.320198525869976,6.859419401977387,53.32032197678312],"geometry":{"type":"Polygon","coordinates":[[[6.859323150218604,53.32031687855211],[6.859286242373369,53.32031283725545],[6.8592870412234035,53.32030986191755],[6.859229945059964,53.32030355159392],[6.859229813451817,53.32030409239741],[6.859220022393041,53.32030304404201],[6.859221641579863,53.3202977221612],[6.859222544756117,53.32029780096694],[6.859249770172321,53.320198525869976],[6.859419401977387,53.320217297288615],[6.859391726884324,53.320316577932914],[6.859392633130011,53.32031674656517],[6.859391160912929,53.32032197678312],[6.859381366776683,53.32032083861302],[6.859381498382989,53.320320297809396],[6.859323952134666,53.3203139930417],[6.859323150218604,53.32031687855211]]]}},{"type":"Feature","properties":{"identificatie":"0003100000117642","bouwjaar":1982,"status":"Pand in gebruik","gebruiksdoel":"woonfunctie","oppervlakte_min":45,"oppervlakte_max":86,"aantal_verblijfsobjecten":4},"bbox":[6.859410715431359,53.32022677057341,6.859648486174924,53.320342879944484],"geometry":{"type":"Polygon","coordinates":[[[6.859635642188998,53.320237627398164],[6.859629819507739,53.320261360257305],[6.859635645148368,53.32026187302595],[6.859648486174924,53.32026301878746],[6.859628852771548,53.320342879944484],[6.859410715431359,53.32032326501587],[6.859423221050304,53.320271978496386],[6.859477078517205,53.3202766209533],[6.859487655521658,53.32023258321767],[6.859507720405254,53.32023431451034],[6.85950953378457,53.32022677057341],[6.859635642188998,53.320237627398164]]]}},{"type":"Feature","properties":{"identificatie":"0003100000117643","bouwjaar":1992,"status":"Pand in gebruik","gebruiksdoel":"winkelfunctie,woonfunctie","oppervlakte_min":98,"oppervlakte_max":647,"aantal_verblijfsobjecten":7},"bbox":[6.860288667956592,53.32001155680644,6.860750455524275,53.32037615915479],"geometry":{"type":"Polygon","coordinates":[[[6.860712111138537,53.320162160618416],[6.860707168903297,53.3201629041749],[6.860750455524275,53.320305654879206],[6.860664039947768,53.320320607302726],[6.860654322903467,53.32029933845549],[6.860583597725107,53.320311860854424],[6.860593245516719,53.32033286095983],[6.860584412971841,53.320334389088664],[6.860573566611788,53.32033978813534],[6.860560957480474,53.32034323174879],[6.860549568007541,53.32034591453017],[6.860532152319089,53.32034792528612],[6.86052093096436,53.32034806281531],[6.860509739521137,53.320347319296665],[6.860500130868328,53.32034897375604],[6.860491532630485,53.320327942807495],[6.860420296943232,53.32034002203945],[6.860430231845855,53.32036108154429],[6.860343114951008,53.32037615915479],[6.860336455070441,53.320333680547286],[6.860337788081845,53.32033360130625],[6.860288667956592,53.32002059118835],[6.860662132874303,53.32001155680644],[6.8606860756060595,53.32009334633991],[6.860693066974688,53.32009283827655],[6.860712111138537,53.320162160618416]]]}},{"type":"Feature","properties":{"identificatie":"0003100000117644","bouwjaar":1970,"status":"Pand in gebruik","gebruiksdoel":"woonfunctie","oppervlakte_min":313,"oppervlakte_max":313,"aantal_verblijfsobjecten":1},"bbox":[6.8564437878900115,53.3203045083561,6.856687354789835,53.32048283167501],"geometry":{"type":"Polygon","coordinates":[[[6.856630320131018,53.32047868267138],[6.8565584976153096,53.32048283167501],[6.856549371472395,53.320426013576935],[6.856461925983465,53.32043105443009],[6.8564437878900115,53.32031723709157],[6.856669075277453,53.3203045083561],[6.856687354789835,53.32041805434118],[6.856621179198754,53.320421873745246],[6.856630320131018,53.32047868267138]]]}},{"type":"Feature","properties":{"identificatie":"0003100000117645","bouwjaar":1992,"status":"Pand in gebruik","gebruiksdoel":"kantoorfunctie,winkelfunctie,woonfunctie","oppervlakte_min":81,"oppervlakte_max":155,"aantal_verblijfsobjecten":18},"bbox":[6.860658213912088,53.32031182319732,6.861326553373255,53.320530677094034],"geometry":{"type":"Polygon","coordinates":[[[6.86126208096765,53.3203723440121],[6.861295042072871,53.32036673663023],[6.86130610588895,53.32039007378905],[6.861299630126465,53.32039117766289],[6.861326553373255,53.32044686058476],[6.861252261761026,53.320459984275175],[6.8612455193559505,53.32044627262045],[6.860914359998158,53.32050318264204],[6.860866256317736,53.32051144684591],[6.860851232851029,53.320496515665646],[6.860799605210654,53.320515400191724],[6.860757834596612,53.320530677094034],[6.860658213912088,53.32043289355807],[6.860717861372598,53.32041109800331],[6.86073359051207,53.320426478863354],[6.860829122763704,53.320391967776075],[6.860844552206288,53.3204073612823],[6.860938868871426,53.320372856021436],[6.860954574472272,53.3203879855189],[6.861049373214496,53.32035353716569],[6.861064938659621,53.32036895593653],[6.861217823124355,53.32031182319732],[6.861229173698573,53.320311953614514],[6.861235593625111,53.3203175543839],[6.86126208096765,53.3203723440121]]]}}]}