{"type":"FeatureCollection","metadata":{"type":"verblijfsobjecten","source":"PDOK BAG WFS v2.0","api":"https://service.pdok.nl/lv/bag/wfs/v2_0","filter":"woonplaats='Muiden' AND status='Verblijfsobject in gebruik'","bbox":null,"count":100,"total_available":9894837,"generated":"2026-02-16T22:04:58","update_frequency":"dagelijks (BAG wordt dagelijks bijgewerkt door Kadaster)","gemeente":"Muiden"},"features":[{"type":"Feature","properties":{"identificatie":"0003010000125985","oppervlakte":69,"status":"Verblijfsobject in gebruik","gebruiksdoel":"woonfunctie","openbare_ruimte":"Molenstraat","huisnummer":16,"huisletter":"","toevoeging":"","postcode":"9901KB","woonplaats":"Appingedam","bouwjaar":2002},"bbox":[6.854402481878347,53.32119143104485,6.854402481878347,53.32119143104485],"geometry":{"type":"Point","coordinates":[6.854402481878347,53.32119143104485]}},{"type":"Feature","properties":{"identificatie":"0003010000125986","oppervlakte":69,"status":"Verblijfsobject in gebruik","gebruiksdoel":"woonfunctie","openbare_ruimte":"Molenstraat","huisnummer":20,"huisletter":"","toevoeging":"","postcode":"9901KB","woonplaats":"Appingedam","bouwjaar":2002},"bbox":[6.854435547713902,53.32118533001977,6.854435547713902,53.32118533001977],"geometry":{"type":"Point","coordinates":[6.854435547713902,53.32118533001977]}},{"type":"Feature","properties":{"identificatie":"0003010000125991","oppervlakte":163,"status":"Verbouwing verblijfsobject","gebruiksdoel":"woonfunctie","openbare_ruimte":"Kniestraat","huisnummer":15,"huisletter":"","toevoeging":"","postcode":"9901AD","woonplaats":"Appingedam","bouwjaar":1925},"bbox":[6.856312279558407,53.32093644330823,6.856312279558407,53.32093644330823],"geometry":{"type":"Point","coordinates":[6.856312279558407,53.32093644330823]}},{"type":"Feature","properties":{"identificatie":"0003010000125992","oppervlakte":153,"status":"Verblijfsobject in gebruik","gebruiksdoel":"woonfunctie","openbare_ruimte":"Kniestraat","huisnummer":6,"huisletter":"","toevoeging":"","postcode":"9901AD","woonplaats":"Appingedam","bouwjaar":1950},"bbox":[6.856505969864982,53.320532153723896,6.856505969864982,53.320532153723896],"geometry":{"type":"Point","coordinates":[6.856505969864982,53.320532153723896]}},{"type":"Feature","properties":{"identificatie":"0003010000125993","oppervlakte":80,"status":"Verblijfsobject in gebruik","gebruiksdoel":"kantoorfunctie","openbare_ruimte":"Kniestraat","huisnummer":10,"huisletter":"","toevoeging":"I","postcode":"9901AD","woonplaats":"Appingedam","bouwjaar":1930},"bbox":[6.856448755317616,53.32091327062415,6.856448755317616,53.32091327062415],"geometry":{"type":"Point","coordinates":[6.856448755317616,53.32091327062415]}},{"type":"Feature","properties":{"identificatie":"0003010000125994","oppervlakte":64,"status":"Verblijfsobject in gebruik","gebruiksdoel":"woonfunctie","openbare_ruimte":"Kniestraat","huisnummer":10,"huisletter":"a","toevoeging":"","postcode":"9901AD","woonplaats":"Appingedam","bouwjaar":1930},"bbox":[6.856499906079857,53.320909823679436,6.856499906079857,53.320909823679436],"geometry":{"type":"Point","coordinates":[6.856499906079857,53.320909823679436]}},{"type":"Feature","properties":{"identificatie":"0003010000125996","oppervlakte":313,"status":"Verblijfsobject in gebruik","gebruiksdoel":"woonfunctie","openbare_ruimte":"Kniestraat","huisnummer":2,"huisletter":"","toevoeging":"","postcode":"9901AD","woonplaats":"Appingedam","bouwjaar":1970},"bbox":[6.856494972273586,53.320371582086665,6.856494972273586,53.320371582086665],"geometry":{"type":"Point","coordinates":[6.856494972273586,53.320371582086665]}},{"type":"Feature","properties":{"identificatie":"0003010000125997","oppervlakte":267,"status":"Verblijfsobject in gebruik","gebruiksdoel":"woonfunctie","openbare_ruimte":"Wijkstraat","huisnummer":1,"huisletter":"","toevoeging":"","postcode":"9901AE","woonplaats":"Appingedam","bouwjaar":1900},"bbox":[6.856136629281428,53.320230397639364,6.856136629281428,53.320230397639364],"geometry":{"type":"Point","coordinates":[6.856136629281428,53.320230397639364]}},{"type":"Feature","properties":{"identificatie":"0003010000125998","oppervlakte":166,"status":"Verblijfsobject in gebruik","gebruiksdoel":"woonfunctie","openbare_ruimte":"Wijkstraat","huisnummer":3,"huisletter":"","toevoeging":"","postcode":"9901AE","woonplaats":"Appingedam","bouwjaar":1900},"bbox":[6.855928244105486,53.320314550473014,6.855928244105486,53.320314550473014],"geometry":{"type":"Point","coordinates":[6.855928244105486,53.320314550473014]}},{"type":"Feature","properties":{"identificatie":"0003010000125999","oppervlakte":64,"status":"Verblijfsobject in gebruik","gebruiksdoel":"woonfunctie","openbare_ruimte":"Wijkstraat","huisnummer":15,"huisletter":"","toevoeging":"","postcode":"9901AE","woonplaats":"Appingedam","bouwjaar":1925},"bbox":[6.856949899528615,53.32034699640296,6.856949899528615,53.32034699640296],"geometry":{"type":"Point","coordinates":[6.856949899528615,53.32034699640296]}},{"type":"Feature","properties":{"identificatie":"0003010000126000","oppervlakte":297,"status":"Verblijfsobject in gebruik","gebruiksdoel":"kantoorfunctie","openbare_ruimte":"Oude Kerkstraat","huisnummer":1,"huisletter":"","toevoeging":"","postcode":"9901JB","woonplaats":"Appingedam","bouwjaar":1950},"bbox":[6.857173444125052,53.32039757116005,6.857173444125052,53.32039757116005],"geometry":{"type":"Point","coordinates":[6.857173444125052,53.32039757116005]}},{"type":"Feature","properties":{"identificatie":"0003010000126001","oppervlakte":101,"status":"Verblijfsobject in gebruik","gebruiksdoel":"kantoorfunctie","openbare_ruimte":"Wijkstraat","huisnummer":21,"huisletter":"","toevoeging":"","postcode":"9901AE","woonplaats":"Appingedam","bouwjaar":1900},"bbox":[6.857399954332051,53.32034149306425,6.857399954332051,53.32034149306425],"geometry":{"type":"Point","coordinates":[6.857399954332051,53.32034149306425]}},{"type":"Feature","properties":{"identificatie":"0003010000126002","oppervlakte":252,"status":"Verblijfsobject in gebruik","gebruiksdoel":"bijeenkomstfunctie","openbare_ruimte":"Wijkstraat","huisnummer":25,"huisletter":"","toevoeging":"","postcode":"9901AE","woonplaats":"Appingedam","bouwjaar":1860},"bbox":[6.857656631261321,53.32053088101156,6.857656631261321,53.32053088101156],"geometry":{"type":"Point","coordinates":[6.857656631261321,53.32053088101156]}},{"type":"Feature","properties":{"identificatie":"0003010000126003","oppervlakte":72,"status":"Verblijfsobject in gebruik","gebruiksdoel":"woonfunctie","openbare_ruimte":"Wijkstraat","huisnummer":27,"huisletter":"","toevoeging":"","postcode":"9901AE","woonplaats":"Appingedam","bouwjaar":1900},"bbox":[6.857969716992111,53.320325536972,6.857969716992111,53.320325536972],"geometry":{"type":"Point","coordinates":[6.857969716992111,53.320325536972]}},{"type":"Feature","properties":{"identificatie":"0003010000126004","oppervlakte":58,"status":"Verblijfsobject in gebruik","gebruiksdoel":"winkelfunctie","openbare_ruimte":"Wijkstraat","huisnummer":29,"huisletter":"","toevoeging":"","postcode":"9901AE","woonplaats":"Appingedam","bouwjaar":1900},"bbox":[6.858152813749839,53.32031537056666,6.858152813749839,53.32031537056666],"geometry":{"type":"Point","coordinates":[6.858152813749839,53.32031537056666]}},{"type":"Feature","properties":{"identificatie":"0003010000126005","oppervlakte":227,"status":"Verblijfsobject in gebruik","gebruiksdoel":"woonfunctie","openbare_ruimte":"Wijkstraat","huisnummer":1,"huisletter":"a","toevoeging":"","postcode":"9901AE","woonplaats":"Appingedam","bouwjaar":1900},"bbox":[6.855972211466124,53.32022585545793,6.855972211466124,53.32022585545793],"geometry":{"type":"Point","coordinates":[6.855972211466124,53.32022585545793]}},{"type":"Feature","properties":{"identificatie":"0003010000126016","oppervlakte":16,"status":"Verblijfsobject in gebruik","gebruiksdoel":"overige gebruiksfunctie","openbare_ruimte":"Rengersstraat","huisnummer":147,"huisletter":"g","toevoeging":"1","postcode":"","woonplaats":"Appingedam","bouwjaar":2006},"bbox":[6.872664985924784,53.3163523100452,6.872664985924784,53.3163523100452],"geometry":{"type":"Point","coordinates":[6.872664985924784,53.3163523100452]}},{"type":"Feature","properties":{"identificatie":"0003010000126017","oppervlakte":16,"status":"Verblijfsobject in gebruik","gebruiksdoel":"overige gebruiksfunctie","openbare_ruimte":"Rengersstraat","huisnummer":147,"huisletter":"g","toevoeging":"4","postcode":"","woonplaats":"Appingedam","bouwjaar":2006},"bbox":[6.872796062185552,53.31633685084661,6.872796062185552,53.31633685084661],"geometry":{"type":"Point","coordinates":[6.872796062185552,53.31633685084661]}},{"type":"Feature","properties":{"identificatie":"0003010000126018","oppervlakte":16,"status":"Verblijfsobject in gebruik","gebruiksdoel":"overige gebruiksfunctie","openbare_ruimte":"Rengersstraat","huisnummer":147,"huisletter":"g","toevoeging":"5","postcode":"","woonplaats":"Appingedam","bouwjaar":2006},"bbox":[6.87284561318256,53.31632984899187,6.87284561318256,53.31632984899187],"geometry":{"type":"Point","coordinates":[6.87284561318256,53.31632984899187]}},{"type":"Feature","properties":{"identificatie":"0003010000126020","oppervlakte":103,"status":"Verblijfsobject in gebruik","gebruiksdoel":"woonfunctie","openbare_ruimte":"Wijkstraat","huisnummer":37,"huisletter":"","toevoeging":"","postcode":"9901AG","woonplaats":"Appingedam","bouwjaar":1925},"bbox":[6.858601633331963,53.320371723140916,6.858601633331963,53.320371723140916],"geometry":{"type":"Point","coordinates":[6.858601633331963,53.320371723140916]}},{"type":"Feature","properties":{"identificatie":"0003010000126021","oppervlakte":188,"status":"Verblijfsobject in gebruik","gebruiksdoel":"woonfunctie","openbare_ruimte":"Wijkstraat","huisnummer":37,"huisletter":"a","toevoeging":"","postcode":"9901AG","woonplaats":"Appingedam","bouwjaar":1900},"bbox":[6.858610887529704,53.32053726756253,6.858610887529704,53.32053726756253],"geometry":{"type":"Point","coordinates":[6.858610887529704,53.32053726756253]}},{"type":"Feature","properties":{"identificatie":"0003010000126022","oppervlakte":98,"status":"Verblijfsobject in gebruik","gebruiksdoel":"woonfunctie","openbare_ruimte":"Wijkstraat","huisnummer":39,"huisletter":"","toevoeging":"","postcode":"9901AG","woonplaats":"Appingedam","bouwjaar":1925},"bbox":[6.858736649782609,53.32037007046102,6.858736649782609,53.32037007046102],"geometry":{"type":"Point","coordinates":[6.858736649782609,53.32037007046102]}},{"type":"Feature","properties":{"identificatie":"0003010000126023","oppervlakte":141,"status":"Verblijfsobject in gebruik","gebruiksdoel":"winkelfunctie,woonfunctie","openbare_ruimte":"Wijkstraat","huisnummer":41,"huisletter":"","toevoeging":"","postcode":"9901AG","woonplaats":"Appingedam","bouwjaar":1910},"bbox":[6.858804962666487,53.32037039347621,6.858804962666487,53.32037039347621],"geometry":{"type":"Point","coordinates":[6.858804962666487,53.32037039347621]}},{"type":"Feature","properties":{"identificatie":"0003010000126024","oppervlakte":265,"status":"Verblijfsobject in gebruik","gebruiksdoel":"woonfunctie","openbare_ruimte":"Wijkstraat","huisnummer":43,"huisletter":"","toevoeging":"","postcode":"9901AG","woonplaats":"Appingedam","bouwjaar":1847},"bbox":[6.859068223935267,53.32041094381109,6.859068223935267,53.32041094381109],"geometry":{"type":"Point","coordinates":[6.859068223935267,53.32041094381109]}},{"type":"Feature","properties":{"identificatie":"0003010000126025","oppervlakte":135,"status":"Verblijfsobject in gebruik","gebruiksdoel":"woonfunctie","openbare_ruimte":"Wijkstraat","huisnummer":45,"huisletter":"","toevoeging":"","postcode":"9901AG","woonplaats":"Appingedam","bouwjaar":1925},"bbox":[6.85923416466096,53.320435871528744,6.85923416466096,53.320435871528744],"geometry":{"type":"Point","coordinates":[6.85923416466096,53.320435871528744]}},{"type":"Feature","properties":{"identificatie":"0003010000126026","oppervlakte":215,"status":"Verblijfsobject in gebruik","gebruiksdoel":"bijeenkomstfunctie","openbare_ruimte":"Wijkstraat","huisnummer":47,"huisletter":"","toevoeging":"","postcode":"9901AG","woonplaats":"Appingedam","bouwjaar":1934},"bbox":[6.859384796860441,53.320451999965165,6.859384796860441,53.320451999965165],"geometry":{"type":"Point","coordinates":[6.859384796860441,53.320451999965165]}},{"type":"Feature","properties":{"identificatie":"0003010000126028","oppervlakte":75,"status":"Verblijfsobject in gebruik","gebruiksdoel":"woonfunctie","openbare_ruimte":"Wijkstraat","huisnummer":41,"huisletter":"a","toevoeging":"","postcode":"9901AG","woonplaats":"Appingedam","bouwjaar":1961},"bbox":[6.859006663279591,53.32057229582393,6.859006663279591,53.32057229582393],"geometry":{"type":"Point","coordinates":[6.859006663279591,53.32057229582393]}},{"type":"Feature","properties":{"identificatie":"0003010000126029","oppervlakte":112,"status":"Verblijfsobject in gebruik","gebruiksdoel":"woonfunctie","openbare_ruimte":"Wijkstraat","huisnummer":47,"huisletter":"a","toevoeging":"","postcode":"9901AG","woonplaats":"Appingedam","bouwjaar":1934},"bbox":[6.859475114863383,53.32045988038259,6.859475114863383,53.32045988038259],"geometry":{"type":"Point","coordinates":[6.859475114863383,53.32045988038259]}},{"type":"Feature","properties":{"identificatie":"0003010000126031","oppervlakte":148,"status":"Verblijfsobject in gebruik","gebruiksdoel":"woonfunctie","openbare_ruimte":"Wijkstraat","huisnummer":55,"huisletter":"","toevoeging":"","postcode":"9901AH","woonplaats":"Appingedam","bouwjaar":1925},"bbox":[6.85979291635553,53.32053686655174,6.85979291635553,53.32053686655174],"geometry":{"type":"Point","coordinates":[6.85979291635553,53.32053686655174]}},{"type":"Feature","properties":{"identificatie":"0003010000126032","oppervlakte":197,"status":"Verblijfsobject in gebruik","gebruiksdoel":"bijeenkomstfunctie,woonfunctie","openbare_ruimte":"Wijkstraat","huisnummer":57,"huisletter":"","toevoeging":"","postcode":"9901AH","woonplaats":"Appingedam","bouwjaar":1900},"bbox":[6.859913238374468,53.32054437909223,6.859913238374468,53.32054437909223],"geometry":{"type":"Point","coordinates":[6.859913238374468,53.32054437909223]}},{"type":"Feature","properties":{"identificatie":"0003010000126033","oppervlakte":131,"status":"Verblijfsobject in gebruik","gebruiksdoel":"bijeenkomstfunctie","openbare_ruimte":"Wijkstraat","huisnummer":61,"huisletter":"","toevoeging":"","postcode":"9901AH","woonplaats":"Appingedam","bouwjaar":1910},"bbox":[6.860033560434213,53.32055189151209,6.860033560434213,53.32055189151209],"geometry":{"type":"Point","coordinates":[6.860033560434213,53.32055189151209]}},{"type":"Feature","properties":{"identificatie":"0003010000126035","oppervlakte":22,"status":"Verblijfsobject in gebruik","gebruiksdoel":"overige gebruiksfunctie","openbare_ruimte":"Wethouder Huismanlaan","huisnummer":55,"huisletter":"A","toevoeging":"","postcode":"","woonplaats":"Appingedam","bouwjaar":1971},"bbox":[6.869753041700201,53.31375019091846,6.869753041700201,53.31375019091846],"geometry":{"type":"Point","coordinates":[6.869753041700201,53.31375019091846]}},{"type":"Feature","properties":{"identificatie":"0003010000126036","oppervlakte":159,"status":"Verblijfsobject in gebruik","gebruiksdoel":"bijeenkomstfunctie","openbare_ruimte":"Wijkstraat","huisnummer":63,"huisletter":"","toevoeging":"","postcode":"9901AH","woonplaats":"Appingedam","bouwjaar":1904},"bbox":[6.860153268482629,53.320541438270844,6.860153268482629,53.320541438270844],"geometry":{"type":"Point","coordinates":[6.860153268482629,53.320541438270844]}},{"type":"Feature","properties":{"identificatie":"0003010000126037","oppervlakte":155,"status":"Verblijfsobject in gebruik","gebruiksdoel":"kantoorfunctie","openbare_ruimte":"Wijkstraat","huisnummer":65,"huisletter":"","toevoeging":"","postcode":"9901AH","woonplaats":"Appingedam","bouwjaar":1992},"bbox":[6.860709373123388,53.32043674177692,6.860709373123388,53.32043674177692],"geometry":{"type":"Point","coordinates":[6.860709373123388,53.32043674177692]}},{"type":"Feature","properties":{"identificatie":"0003010000126038","oppervlakte":83,"status":"Verblijfsobject in gebruik","gebruiksdoel":"kantoorfunctie","openbare_ruimte":"Wijkstraat","huisnummer":69,"huisletter":"","toevoeging":"","postcode":"9901AH","woonplaats":"Appingedam","bouwjaar":1992},"bbox":[6.860921006430087,53.320390329149156,6.860921006430087,53.320390329149156],"geometry":{"type":"Point","coordinates":[6.860921006430087,53.320390329149156]}},{"type":"Feature","properties":{"identificatie":"0003010000126039","oppervlakte":83,"status":"Verblijfsobject in gebruik","gebruiksdoel":"winkelfunctie","openbare_ruimte":"Wijkstraat","huisnummer":71,"huisletter":"","toevoeging":"","postcode":"9901AH","woonplaats":"Appingedam","bouwjaar":1992},"bbox":[6.861040676117144,53.32037175166161,6.861040676117144,53.32037175166161],"geometry":{"type":"Point","coordinates":[6.861040676117144,53.32037175166161]}},{"type":"Feature","properties":{"identificatie":"0003010000126041","oppervlakte":87,"status":"Verblijfsobject in gebruik","gebruiksdoel":"woonfunctie","openbare_ruimte":"Wijkstraat","huisnummer":75,"huisletter":"","toevoeging":"","postcode":"9901AH","woonplaats":"Appingedam","bouwjaar":1992},"bbox":[6.860737885665606,53.32046299241923,6.860737885665606,53.32046299241923],"geometry":{"type":"Point","coordinates":[6.860737885665606,53.32046299241923]}},{"type":"Feature","properties":{"identificatie":"0003010000126042","oppervlakte":94,"status":"Verblijfsobject in gebruik","gebruiksdoel":"woonfunctie","openbare_ruimte":"Wijkstraat","huisnummer":77,"huisletter":"","toevoeging":"","postcode":"9901AH","woonplaats":"Appingedam","bouwjaar":1992},"bbox":[6.860804512656511,53.32044385216083,6.860804512656511,53.32044385216083],"geometry":{"type":"Point","coordinates":[6.860804512656511,53.32044385216083]}},{"type":"Feature","properties":{"identificatie":"0003010000126043","oppervlakte":94,"status":"Verblijfsobject in gebruik","gebruiksdoel":"woonfunctie","openbare_ruimte":"Wijkstraat","huisnummer":79,"huisletter":"","toevoeging":"","postcode":"9901AH","woonplaats":"Appingedam","bouwjaar":1992},"bbox":[6.860945351948065,53.320411463571176,6.860945351948065,53.320411463571176],"geometry":{"type":"Point","coordinates":[6.860945351948065,53.320411463571176]}},{"type":"Feature","properties":{"identificatie":"0003010000126044","oppervlakte":94,"status":"Verblijfsobject in gebruik","gebruiksdoel":"woonfunctie","openbare_ruimte":"Wijkstraat","huisnummer":81,"huisletter":"","toevoeging":"","postcode":"9901AH","woonplaats":"Appingedam","bouwjaar":1992},"bbox":[6.861061427234602,53.32039178883918,6.861061427234602,53.32039178883918],"geometry":{"type":"Point","coordinates":[6.861061427234602,53.32039178883918]}},{"type":"Feature","properties":{"identificatie":"0003010000126045","oppervlakte":86,"status":"Verblijfsobject in gebruik","gebruiksdoel":"woonfunctie","openbare_ruimte":"Wijkstraat","huisnummer":83,"huisletter":"","toevoeging":"","postcode":"9901AH","woonplaats":"Appingedam","bouwjaar":1992},"bbox":[6.86119804155092,53.32036269588904,6.86119804155092,53.32036269588904],"geometry":{"type":"Point","coordinates":[6.86119804155092,53.32036269588904]}},{"type":"Feature","properties":{"identificatie":"0003010000126046","oppervlakte":87,"status":"Verblijfsobject in gebruik","gebruiksdoel":"woonfunctie","openbare_ruimte":"Wijkstraat","huisnummer":85,"huisletter":"","toevoeging":"","postcode":"9901AH","woonplaats":"Appingedam","bouwjaar":1992},"bbox":[6.860758031714104,53.320480260225715,6.860758031714104,53.320480260225715],"geometry":{"type":"Point","coordinates":[6.860758031714104,53.320480260225715]}},{"type":"Feature","properties":{"identificatie":"0003010000126047","oppervlakte":137,"status":"Verblijfsobject in gebruik","gebruiksdoel":"woonfunctie","openbare_ruimte":"Snelgersmastraat","huisnummer":3,"huisletter":"","toevoeging":"","postcode":"9901AA","woonplaats":"Appingedam","bouwjaar":1900},"bbox":[6.854125903186923,53.31983331222181,6.854125903186923,53.31983331222181],"geometry":{"type":"Point","coordinates":[6.854125903186923,53.31983331222181]}},{"type":"Feature","properties":{"identificatie":"0003010000126048","oppervlakte":117,"status":"Verblijfsobject in gebruik","gebruiksdoel":"woonfunctie","openbare_ruimte":"Snelgersmastraat","huisnummer":5,"huisletter":"","toevoeging":"","postcode":"9901AA","woonplaats":"Appingedam","bouwjaar":1900},"bbox":[6.854245304932455,53.31981388206839,6.854245304932455,53.31981388206839],"geometry":{"type":"Point","coordinates":[6.854245304932455,53.31981388206839]}},{"type":"Feature","properties":{"identificatie":"0003010000126049","oppervlakte":305,"status":"Verblijfsobject in gebruik","gebruiksdoel":"kantoorfunctie,woonfunctie","openbare_ruimte":"Snelgersmastraat","huisnummer":7,"huisletter":"","toevoeging":"","postcode":"9901AA","woonplaats":"Appingedam","bouwjaar":1996},"bbox":[6.854410323162968,53.31981186809414,6.854410323162968,53.31981186809414],"geometry":{"type":"Point","coordinates":[6.854410323162968,53.31981186809414]}},{"type":"Feature","properties":{"identificatie":"0003010000126050","oppervlakte":294,"status":"Verblijfsobject in gebruik","gebruiksdoel":"gezondheidszorgfunctie,woonfunctie","openbare_ruimte":"Snelgersmastraat","huisnummer":11,"huisletter":"","toevoeging":"","postcode":"9901AA","woonplaats":"Appingedam","bouwjaar":1920},"bbox":[6.854701166371082,53.31997906191403,6.854701166371082,53.31997906191403],"geometry":{"type":"Point","coordinates":[6.854701166371082,53.31997906191403]}},{"type":"Feature","properties":{"identificatie":"0003010000126051","oppervlakte":116,"status":"Verblijfsobject in gebruik","gebruiksdoel":"woonfunctie","openbare_ruimte":"Westersingel","huisnummer":70,"huisletter":"","toevoeging":"","postcode":"9901GJ","woonplaats":"Appingedam","bouwjaar":2002},"bbox":[6.845087404089118,53.32173559978859,6.845087404089118,53.32173559978859],"geometry":{"type":"Point","coordinates":[6.845087404089118,53.32173559978859]}},{"type":"Feature","properties":{"identificatie":"0003010000126052","oppervlakte":1435,"status":"Verblijfsobject in gebruik","gebruiksdoel":"onderwijsfunctie","openbare_ruimte":"Olingermeeden","huisnummer":2,"huisletter":"","toevoeging":"","postcode":"9903ET","woonplaats":"Appingedam","bouwjaar":2002},"bbox":[6.8524320818517115,53.31738341207442,6.8524320818517115,53.31738341207442],"geometry":{"type":"Point","coordinates":[6.8524320818517115,53.31738341207442]}},{"type":"Feature","properties":{"identificatie":"0003010000126054","oppervlakte":176,"status":"Verblijfsobject in gebruik","gebruiksdoel":"woonfunctie","openbare_ruimte":"Snelgersmastraat","huisnummer":13,"huisletter":"","toevoeging":"","postcode":"9901AA","woonplaats":"Appingedam","bouwjaar":1990},"bbox":[6.854970891244528,53.31996678238341,6.854970891244528,53.31996678238341],"geometry":{"type":"Point","coordinates":[6.854970891244528,53.31996678238341]}},{"type":"Feature","properties":{"identificatie":"0003010000126055","oppervlakte":135,"status":"Verblijfsobject in gebruik","gebruiksdoel":"woonfunctie","openbare_ruimte":"Snelgersmastraat","huisnummer":13,"huisletter":"a","toevoeging":"","postcode":"9901AA","woonplaats":"Appingedam","bouwjaar":1938},"bbox":[6.855151217700103,53.31997356700973,6.855151217700103,53.31997356700973],"geometry":{"type":"Point","coordinates":[6.855151217700103,53.31997356700973]}},{"type":"Feature","properties":{"identificatie":"0003010000126056","oppervlakte":171,"status":"Verblijfsobject in gebruik","gebruiksdoel":"woonfunctie","openbare_ruimte":"Snelgersmastraat","huisnummer":13,"huisletter":"b","toevoeging":"","postcode":"9901AA","woonplaats":"Appingedam","bouwjaar":1938},"bbox":[6.855225920249243,53.31996366823929,6.855225920249243,53.31996366823929],"geometry":{"type":"Point","coordinates":[6.855225920249243,53.31996366823929]}},{"type":"Feature","properties":{"identificatie":"0003010000126057","oppervlakte":595,"status":"Verblijfsobject in gebruik","gebruiksdoel":"bijeenkomstfunctie,woonfunctie","openbare_ruimte":"Snelgersmastraat","huisnummer":15,"huisletter":"","toevoeging":"","postcode":"9901AA","woonplaats":"Appingedam","bouwjaar":1920},"bbox":[6.855531450998077,53.31993853080218,6.855531450998077,53.31993853080218],"geometry":{"type":"Point","coordinates":[6.855531450998077,53.31993853080218]}},{"type":"Feature","properties":{"identificatie":"0003010000126058","oppervlakte":395,"status":"Verblijfsobject in gebruik","gebruiksdoel":"gezondheidszorgfunctie,woonfunctie","openbare_ruimte":"Snelgersmastraat","huisnummer":27,"huisletter":"","toevoeging":"","postcode":"9901AA","woonplaats":"Appingedam","bouwjaar":1900},"bbox":[6.855953860914707,53.31999435308664,6.855953860914707,53.31999435308664],"geometry":{"type":"Point","coordinates":[6.855953860914707,53.31999435308664]}},{"type":"Feature","properties":{"identificatie":"0003010000126070","oppervlakte":203,"status":"Verblijfsobject in gebruik","gebruiksdoel":"kantoorfunctie,woonfunctie","openbare_ruimte":"Snelgersmastraat","huisnummer":2,"huisletter":"","toevoeging":"","postcode":"9901AA","woonplaats":"Appingedam","bouwjaar":1890},"bbox":[6.853579705271668,53.32010058534339,6.853579705271668,53.32010058534339],"geometry":{"type":"Point","coordinates":[6.853579705271668,53.32010058534339]}},{"type":"Feature","properties":{"identificatie":"0003010000126071","oppervlakte":125,"status":"Verblijfsobject in gebruik","gebruiksdoel":"woonfunctie","openbare_ruimte":"Snelgersmastraat","huisnummer":4,"huisletter":"","toevoeging":"","postcode":"9901AA","woonplaats":"Appingedam","bouwjaar":1925},"bbox":[6.8537612548439615,53.32014330323044,6.8537612548439615,53.32014330323044],"geometry":{"type":"Point","coordinates":[6.8537612548439615,53.32014330323044]}},{"type":"Feature","properties":{"identificatie":"0003010000126072","oppervlakte":219,"status":"Verblijfsobject in gebruik","gebruiksdoel":"woonfunctie","openbare_ruimte":"Snelgersmastraat","huisnummer":6,"huisletter":"","toevoeging":"","postcode":"9901AA","woonplaats":"Appingedam","bouwjaar":1940},"bbox":[6.854183444940869,53.32020105752832,6.854183444940869,53.32020105752832],"geometry":{"type":"Point","coordinates":[6.854183444940869,53.32020105752832]}},{"type":"Feature","properties":{"identificatie":"0003010000126073","oppervlakte":189,"status":"Verblijfsobject in gebruik","gebruiksdoel":"woonfunctie","openbare_ruimte":"Snelgersmastraat","huisnummer":8,"huisletter":"","toevoeging":"","postcode":"9901AA","woonplaats":"Appingedam","bouwjaar":1938},"bbox":[6.854394081676146,53.32021645993177,6.854394081676146,53.32021645993177],"geometry":{"type":"Point","coordinates":[6.854394081676146,53.32021645993177]}},{"type":"Feature","properties":{"identificatie":"0003010000126074","oppervlakte":178,"status":"Verblijfsobject in gebruik","gebruiksdoel":"woonfunctie","openbare_ruimte":"Snelgersmastraat","huisnummer":8,"huisletter":"a","toevoeging":"","postcode":"9901AA","woonplaats":"Appingedam","bouwjaar":1938},"bbox":[6.854529403697932,53.32022379476981,6.854529403697932,53.32022379476981],"geometry":{"type":"Point","coordinates":[6.854529403697932,53.32022379476981]}},{"type":"Feature","properties":{"identificatie":"0003010000126075","oppervlakte":318,"status":"Verblijfsobject in gebruik","gebruiksdoel":"woonfunctie","openbare_ruimte":"Snelgersmastraat","huisnummer":10,"huisletter":"","toevoeging":"","postcode":"9901AA","woonplaats":"Appingedam","bouwjaar":1938},"bbox":[6.854769738368877,53.32022984749076,6.854769738368877,53.32022984749076],"geometry":{"type":"Point","coordinates":[6.854769738368877,53.32022984749076]}},{"type":"Feature","properties":{"identificatie":"0003010000126078","oppervlakte":79,"status":"Verblijfsobject in gebruik","gebruiksdoel":"woonfunctie","openbare_ruimte":"Bouwmeestersstraat","huisnummer":2,"huisletter":"","toevoeging":"","postcode":"9901AB","woonplaats":"Appingedam","bouwjaar":1982},"bbox":[6.8540011497927225,53.32039528804229,6.8540011497927225,53.32039528804229],"geometry":{"type":"Point","coordinates":[6.8540011497927225,53.32039528804229]}},{"type":"Feature","properties":{"identificatie":"0003010000126079","oppervlakte":79,"status":"Verblijfsobject in gebruik","gebruiksdoel":"woonfunctie","openbare_ruimte":"Bouwmeestersstraat","huisnummer":4,"huisletter":"","toevoeging":"","postcode":"9901AB","woonplaats":"Appingedam","bouwjaar":1982},"bbox":[6.853978233529272,53.32044426562473,6.853978233529272,53.32044426562473],"geometry":{"type":"Point","coordinates":[6.853978233529272,53.32044426562473]}},{"type":"Feature","properties":{"identificatie":"0003010000126080","oppervlakte":67,"status":"Verblijfsobject in gebruik","gebruiksdoel":"woonfunctie","openbare_ruimte":"Bouwmeestersstraat","huisnummer":6,"huisletter":"","toevoeging":"","postcode":"9901AB","woonplaats":"Appingedam","bouwjaar":1982},"bbox":[6.853964843481056,53.32049180594991,6.853964843481056,53.32049180594991],"geometry":{"type":"Point","coordinates":[6.853964843481056,53.32049180594991]}},{"type":"Feature","properties":{"identificatie":"0003010000126081","oppervlakte":67,"status":"Verblijfsobject in gebruik","gebruiksdoel":"woonfunctie","openbare_ruimte":"Bouwmeestersstraat","huisnummer":8,"huisletter":"","toevoeging":"","postcode":"9901AB","woonplaats":"Appingedam","bouwjaar":1982},"bbox":[6.853956785934671,53.320536836874965,6.853956785934671,53.320536836874965],"geometry":{"type":"Point","coordinates":[6.853956785934671,53.320536836874965]}},{"type":"Feature","properties":{"identificatie":"0003010000126082","oppervlakte":67,"status":"Verblijfsobject in gebruik","gebruiksdoel":"woonfunctie","openbare_ruimte":"Bouwmeestersstraat","huisnummer":10,"huisletter":"","toevoeging":"","postcode":"9901AB","woonplaats":"Appingedam","bouwjaar":1982},"bbox":[6.853940103559782,53.320586861700214,6.853940103559782,53.320586861700214],"geometry":{"type":"Point","coordinates":[6.853940103559782,53.320586861700214]}},{"type":"Feature","properties":{"identificatie":"0003010000126083","oppervlakte":67,"status":"Verblijfsobject in gebruik","gebruiksdoel":"woonfunctie","openbare_ruimte":"Bouwmeestersstraat","huisnummer":12,"huisletter":"","toevoeging":"","postcode":"9901AB","woonplaats":"Appingedam","bouwjaar":1982},"bbox":[6.853924681615924,53.320636880129925,6.853924681615924,53.320636880129925],"geometry":{"type":"Point","coordinates":[6.853924681615924,53.320636880129925]}},{"type":"Feature","properties":{"identificatie":"0003010000126084","oppervlakte":79,"status":"Verblijfsobject in gebruik","gebruiksdoel":"woonfunctie","openbare_ruimte":"Bouwmeestersstraat","huisnummer":14,"huisletter":"","toevoeging":"","postcode":"9901AB","woonplaats":"Appingedam","bouwjaar":1982},"bbox":[6.853874424114602,53.320682003556264,6.853874424114602,53.320682003556264],"geometry":{"type":"Point","coordinates":[6.853874424114602,53.320682003556264]}},{"type":"Feature","properties":{"identificatie":"0003010000126085","oppervlakte":79,"status":"Verblijfsobject in gebruik","gebruiksdoel":"woonfunctie","openbare_ruimte":"Bouwmeestersstraat","huisnummer":16,"huisletter":"","toevoeging":"","postcode":"9901AB","woonplaats":"Appingedam","bouwjaar":1982},"bbox":[6.853860411941797,53.320731995788684,6.853860411941797,53.320731995788684],"geometry":{"type":"Point","coordinates":[6.853860411941797,53.320731995788684]}},{"type":"Feature","properties":{"identificatie":"0003010000126086","oppervlakte":79,"status":"Verblijfsobject in gebruik","gebruiksdoel":"woonfunctie","openbare_ruimte":"Bouwmeestersstraat","huisnummer":18,"huisletter":"","toevoeging":"","postcode":"9901AB","woonplaats":"Appingedam","bouwjaar":1982},"bbox":[6.85384014012908,53.32077798450746,6.85384014012908,53.32077798450746],"geometry":{"type":"Point","coordinates":[6.85384014012908,53.32077798450746]}},{"type":"Feature","properties":{"identificatie":"0003010000126087","oppervlakte":79,"status":"Verblijfsobject in gebruik","gebruiksdoel":"woonfunctie","openbare_ruimte":"Bouwmeestersstraat","huisnummer":20,"huisletter":"","toevoeging":"","postcode":"9901AB","woonplaats":"Appingedam","bouwjaar":1982},"bbox":[6.853816394055085,53.32082155330136,6.853816394055085,53.32082155330136],"geometry":{"type":"Point","coordinates":[6.853816394055085,53.32082155330136]}},{"type":"Feature","properties":{"identificatie":"0003010000126088","oppervlakte":79,"status":"Verblijfsobject in gebruik","gebruiksdoel":"woonfunctie","openbare_ruimte":"Bouwmeestersstraat","huisnummer":22,"huisletter":"","toevoeging":"","postcode":"9901AB","woonplaats":"Appingedam","bouwjaar":1982},"bbox":[6.853796261248901,53.320871629181816,6.853796261248901,53.320871629181816],"geometry":{"type":"Point","coordinates":[6.853796261248901,53.320871629181816]}},{"type":"Feature","properties":{"identificatie":"0003010000126089","oppervlakte":79,"status":"Verblijfsobject in gebruik","gebruiksdoel":"woonfunctie","openbare_ruimte":"Bouwmeestersstraat","huisnummer":24,"huisletter":"","toevoeging":"","postcode":"9901AB","woonplaats":"Appingedam","bouwjaar":1982},"bbox":[6.853787850338749,53.32092480618679,6.853787850338749,53.32092480618679],"geometry":{"type":"Point","coordinates":[6.853787850338749,53.32092480618679]}},{"type":"Feature","properties":{"identificatie":"0003010000126090","oppervlakte":84,"status":"Verblijfsobject in gebruik","gebruiksdoel":"woonfunctie","openbare_ruimte":"Bouwmeestersstraat","huisnummer":26,"huisletter":"","toevoeging":"","postcode":"9901AB","woonplaats":"Appingedam","bouwjaar":1982},"bbox":[6.853835607886513,53.32100510222909,6.853835607886513,53.32100510222909],"geometry":{"type":"Point","coordinates":[6.853835607886513,53.32100510222909]}},{"type":"Feature","properties":{"identificatie":"0003010000126091","oppervlakte":104,"status":"Verblijfsobject in gebruik","gebruiksdoel":"woonfunctie","openbare_ruimte":"Molenstraat","huisnummer":1,"huisletter":"","toevoeging":"","postcode":"9901AC","woonplaats":"Appingedam","bouwjaar":1982},"bbox":[6.854774326887248,53.32036458933852,6.854774326887248,53.32036458933852],"geometry":{"type":"Point","coordinates":[6.854774326887248,53.32036458933852]}},{"type":"Feature","properties":{"identificatie":"0003010000126092","oppervlakte":79,"status":"Verblijfsobject in gebruik","gebruiksdoel":"woonfunctie","openbare_ruimte":"Molenstraat","huisnummer":3,"huisletter":"","toevoeging":"","postcode":"9901AC","woonplaats":"Appingedam","bouwjaar":1982},"bbox":[6.854775856400674,53.32040950328631,6.854775856400674,53.32040950328631],"geometry":{"type":"Point","coordinates":[6.854775856400674,53.32040950328631]}},{"type":"Feature","properties":{"identificatie":"0003010000126093","oppervlakte":79,"status":"Verblijfsobject in gebruik","gebruiksdoel":"woonfunctie","openbare_ruimte":"Molenstraat","huisnummer":5,"huisletter":"","toevoeging":"","postcode":"9901AC","woonplaats":"Appingedam","bouwjaar":1982},"bbox":[6.8547623840393594,53.32045460037808,6.8547623840393594,53.32045460037808],"geometry":{"type":"Point","coordinates":[6.8547623840393594,53.32045460037808]}},{"type":"Feature","properties":{"identificatie":"0003010000126094","oppervlakte":79,"status":"Verblijfsobject in gebruik","gebruiksdoel":"woonfunctie","openbare_ruimte":"Molenstraat","huisnummer":7,"huisletter":"","toevoeging":"","postcode":"9901AC","woonplaats":"Appingedam","bouwjaar":1982},"bbox":[6.854689515843886,53.32051839560039,6.854689515843886,53.32051839560039],"geometry":{"type":"Point","coordinates":[6.854689515843886,53.32051839560039]}},{"type":"Feature","properties":{"identificatie":"0003010000126095","oppervlakte":79,"status":"Verblijfsobject in gebruik","gebruiksdoel":"woonfunctie","openbare_ruimte":"Molenstraat","huisnummer":9,"huisletter":"","toevoeging":"","postcode":"9901AC","woonplaats":"Appingedam","bouwjaar":1982},"bbox":[6.85467573747554,53.32055450989202,6.85467573747554,53.32055450989202],"geometry":{"type":"Point","coordinates":[6.85467573747554,53.32055450989202]}},{"type":"Feature","properties":{"identificatie":"0003010000126096","oppervlakte":79,"status":"Verblijfsobject in gebruik","gebruiksdoel":"woonfunctie","openbare_ruimte":"Molenstraat","huisnummer":11,"huisletter":"","toevoeging":"","postcode":"9901AC","woonplaats":"Appingedam","bouwjaar":1982},"bbox":[6.854677878663596,53.32061738941699,6.854677878663596,53.32061738941699],"geometry":{"type":"Point","coordinates":[6.854677878663596,53.32061738941699]}},{"type":"Feature","properties":{"identificatie":"0003010000126097","oppervlakte":79,"status":"Verblijfsobject in gebruik","gebruiksdoel":"woonfunctie","openbare_ruimte":"Molenstraat","huisnummer":13,"huisletter":"","toevoeging":"","postcode":"9901AC","woonplaats":"Appingedam","bouwjaar":1982},"bbox":[6.8546644061366715,53.320662486495294,6.8546644061366715,53.320662486495294],"geometry":{"type":"Point","coordinates":[6.8546644061366715,53.320662486495294]}},{"type":"Feature","properties":{"identificatie":"0003010000126098","oppervlakte":79,"status":"Verblijfsobject in gebruik","gebruiksdoel":"woonfunctie","openbare_ruimte":"Molenstraat","huisnummer":15,"huisletter":"","toevoeging":"","postcode":"9901AC","woonplaats":"Appingedam","bouwjaar":1982},"bbox":[6.85465093358198,53.320707583571554,6.85465093358198,53.320707583571554],"geometry":{"type":"Point","coordinates":[6.85465093358198,53.320707583571554]}},{"type":"Feature","properties":{"identificatie":"0003010000126099","oppervlakte":84,"status":"Verblijfsobject in gebruik","gebruiksdoel":"woonfunctie","openbare_ruimte":"Molenstraat","huisnummer":17,"huisletter":"","toevoeging":"","postcode":"9901AC","woonplaats":"Appingedam","bouwjaar":1982},"bbox":[6.854683690495838,53.32078806240612,6.854683690495838,53.32078806240612],"geometry":{"type":"Point","coordinates":[6.854683690495838,53.32078806240612]}},{"type":"Feature","properties":{"identificatie":"0003010000126100","oppervlakte":39,"status":"Verblijfsobject in gebruik","gebruiksdoel":"woonfunctie","openbare_ruimte":"Molenstraat","huisnummer":19,"huisletter":"","toevoeging":"","postcode":"9901AC","woonplaats":"Appingedam","bouwjaar":1982},"bbox":[6.854684608158383,53.32081501077187,6.854684608158383,53.32081501077187],"geometry":{"type":"Point","coordinates":[6.854684608158383,53.32081501077187]}},{"type":"Feature","properties":{"identificatie":"0003010000126101","oppervlakte":39,"status":"Verblijfsobject in gebruik","gebruiksdoel":"woonfunctie","openbare_ruimte":"Molenstraat","huisnummer":21,"huisletter":"","toevoeging":"","postcode":"9901AC","woonplaats":"Appingedam","bouwjaar":1982},"bbox":[6.854669912038547,53.32082417669413,6.854669912038547,53.32082417669413],"geometry":{"type":"Point","coordinates":[6.854669912038547,53.32082417669413]}},{"type":"Feature","properties":{"identificatie":"0003010000126102","oppervlakte":37,"status":"Verblijfsobject in gebruik","gebruiksdoel":"woonfunctie","openbare_ruimte":"Molenstraat","huisnummer":23,"huisletter":"","toevoeging":"","postcode":"9901AC","woonplaats":"Appingedam","bouwjaar":1982},"bbox":[6.854730484866044,53.320825926519845,6.854730484866044,53.320825926519845],"geometry":{"type":"Point","coordinates":[6.854730484866044,53.320825926519845]}},{"type":"Feature","properties":{"identificatie":"0003010000126103","oppervlakte":37,"status":"Verblijfsobject in gebruik","gebruiksdoel":"woonfunctie","openbare_ruimte":"Molenstraat","huisnummer":25,"huisletter":"","toevoeging":"","postcode":"9901AC","woonplaats":"Appingedam","bouwjaar":1982},"bbox":[6.8546394105696775,53.32079362640425,6.8546394105696775,53.32079362640425],"geometry":{"type":"Point","coordinates":[6.8546394105696775,53.32079362640425]}},{"type":"Feature","properties":{"identificatie":"0003010000126104","oppervlakte":57,"status":"Verblijfsobject in gebruik","gebruiksdoel":"woonfunctie","openbare_ruimte":"Molenstraat","huisnummer":27,"huisletter":"","toevoeging":"","postcode":"9901AC","woonplaats":"Appingedam","bouwjaar":1982},"bbox":[6.854597209093808,53.32087653897307,6.854597209093808,53.32087653897307],"geometry":{"type":"Point","coordinates":[6.854597209093808,53.32087653897307]}},{"type":"Feature","properties":{"identificatie":"0003010000126105","oppervlakte":79,"status":"Verblijfsobject in gebruik","gebruiksdoel":"woonfunctie","openbare_ruimte":"Molenstraat","huisnummer":29,"huisletter":"","toevoeging":"","postcode":"9901AC","woonplaats":"Appingedam","bouwjaar":1982},"bbox":[6.854518308011466,53.320901585940774,6.854518308011466,53.320901585940774],"geometry":{"type":"Point","coordinates":[6.854518308011466,53.320901585940774]}},{"type":"Feature","properties":{"identificatie":"0003010000126106","oppervlakte":79,"status":"Verblijfsobject in gebruik","gebruiksdoel":"woonfunctie","openbare_ruimte":"Molenstraat","huisnummer":31,"huisletter":"","toevoeging":"","postcode":"9901AC","woonplaats":"Appingedam","bouwjaar":1982},"bbox":[6.854443375134442,53.32092372670873,6.854443375134442,53.32092372670873],"geometry":{"type":"Point","coordinates":[6.854443375134442,53.32092372670873]}},{"type":"Feature","properties":{"identificatie":"0003010000126107","oppervlakte":79,"status":"Verblijfsobject in gebruik","gebruiksdoel":"woonfunctie","openbare_ruimte":"Molenstraat","huisnummer":33,"huisletter":"","toevoeging":"","postcode":"9901AC","woonplaats":"Appingedam","bouwjaar":1982},"bbox":[6.854366778837436,53.32094462063113,6.854366778837436,53.32094462063113],"geometry":{"type":"Point","coordinates":[6.854366778837436,53.32094462063113]}},{"type":"Feature","properties":{"identificatie":"0003010000126108","oppervlakte":79,"status":"Verblijfsobject in gebruik","gebruiksdoel":"woonfunctie","openbare_ruimte":"Molenstraat","huisnummer":35,"huisletter":"","toevoeging":"","postcode":"9901AC","woonplaats":"Appingedam","bouwjaar":1982},"bbox":[6.85429209296094,53.32096476328091,6.85429209296094,53.32096476328091],"geometry":{"type":"Point","coordinates":[6.85429209296094,53.32096476328091]}},{"type":"Feature","properties":{"identificatie":"0003010000126109","oppervlakte":67,"status":"Verblijfsobject in gebruik","gebruiksdoel":"woonfunctie","openbare_ruimte":"Molenstraat","huisnummer":37,"huisletter":"","toevoeging":"","postcode":"9901AC","woonplaats":"Appingedam","bouwjaar":1982},"bbox":[6.854217105749716,53.32098487361485,6.854217105749716,53.32098487361485],"geometry":{"type":"Point","coordinates":[6.854217105749716,53.32098487361485]}},{"type":"Feature","properties":{"identificatie":"0003010000126110","oppervlakte":67,"status":"Verblijfsobject in gebruik","gebruiksdoel":"woonfunctie","openbare_ruimte":"Molenstraat","huisnummer":39,"huisletter":"","toevoeging":"","postcode":"9901AC","woonplaats":"Appingedam","bouwjaar":1982},"bbox":[6.854155612803157,53.32100195253259,6.854155612803157,53.32100195253259],"geometry":{"type":"Point","coordinates":[6.854155612803157,53.32100195253259]}},{"type":"Feature","properties":{"identificatie":"0003010000126111","oppervlakte":67,"status":"Verblijfsobject in gebruik","gebruiksdoel":"woonfunctie","openbare_ruimte":"Molenstraat","huisnummer":41,"huisletter":"","toevoeging":"","postcode":"9901AC","woonplaats":"Appingedam","bouwjaar":1982},"bbox":[6.8540693092974125,53.321029120485385,6.8540693092974125,53.321029120485385],"geometry":{"type":"Point","coordinates":[6.8540693092974125,53.321029120485385]}},{"type":"Feature","properties":{"identificatie":"0003010000126112","oppervlakte":61,"status":"Verblijfsobject in gebruik","gebruiksdoel":"woonfunctie","openbare_ruimte":"Molenstraat","huisnummer":43,"huisletter":"","toevoeging":"","postcode":"9901AC","woonplaats":"Appingedam","bouwjaar":1982},"bbox":[6.854007816228473,53.3210461993278,6.854007816228473,53.3210461993278],"geometry":{"type":"Point","coordinates":[6.854007816228473,53.3210461993278]}},{"type":"Feature","properties":{"identificatie":"0003010000126113","oppervlakte":39,"status":"Verblijfsobject in gebruik","gebruiksdoel":"woonfunctie","openbare_ruimte":"Molenstraat","huisnummer":45,"huisletter":"","toevoeging":"","postcode":"9901AC","woonplaats":"Appingedam","bouwjaar":1982},"bbox":[6.853811898848422,53.321034328079136,6.853811898848422,53.321034328079136],"geometry":{"type":"Point","coordinates":[6.853811898848422,53.321034328079136]}},{"type":"Feature","properties":{"identificatie":"0003010000126114","oppervlakte":39,"status":"Verblijfsobject in gebruik","gebruiksdoel":"woonfunctie","openbare_ruimte":"Molenstraat","huisnummer":47,"huisletter":"","toevoeging":"","postcode":"9901AC","woonplaats":"Appingedam","bouwjaar":1982},"bbox":[6.853885302785439,53.32103427725854,6.853885302785439,53.32103427725854],"geometry":{"type":"Point","coordinates":[6.853885302785439,53.32103427725854]}},{"type":"Feature","properties":{"identificatie":"0003010000126115","oppervlakte":39,"status":"Verblijfsobject in gebruik","gebruiksdoel":"woonfunctie","openbare_ruimte":"Molenstraat","huisnummer":49,"huisletter":"","toevoeging":"","postcode":"9901AC","woonplaats":"Appingedam","bouwjaar":1982},"bbox":[6.853837208013663,53.3210455040769,6.853837208013663,53.3210455040769],"geometry":{"type":"Point","coordinates":[6.853837208013663,53.3210455040769]}},{"type":"Feature","properties":{"identificatie":"0003010000126116","oppervlakte":39,"status":"Verblijfsobject in gebruik","gebruiksdoel":"woonfunctie","openbare_ruimte":"Molenstraat","huisnummer":51,"huisletter":"","toevoeging":"","postcode":"9901AC","woonplaats":"Appingedam","bouwjaar":1982},"bbox":[6.85388244844507,53.32105844987776,6.85388244844507,53.32105844987776],"geometry":{"type":"Point","coordinates":[6.85388244844507,53.32105844987776]}},{"type":"Feature","properties":{"identificatie":"0003010000126118","oppervlakte":86,"status":"Verblijfsobject in gebruik","gebruiksdoel":"woonfunctie","openbare_ruimte":"Molenstraat","huisnummer":8,"huisletter":"","toevoeging":"","postcode":"9901KB","woonplaats":"Appingedam","bouwjaar":2002},"bbox":[6.854732167894371,53.321041941970584,6.854732167894371,53.321041941970584],"geometry":{"type":"Point","coordinates":[6.854732167894371,53.321041941970584]}},{"type":"Feature","properties":{"identificatie":"0003010000126119","oppervlakte":86,"status":"Verblijfsobject in gebruik","gebruiksdoel":"woonfunctie","openbare_ruimte":"Molenstraat","huisnummer":10,"huisletter":"","toevoeging":"","postcode":"9901KB","woonplaats":"Appingedam","bouwjaar":2002},"bbox":[6.854662086774283,53.32106112099741,6.854662086774283,53.32106112099741],"geometry":{"type":"Point","coordinates":[6.854662086774283,53.32106112099741]}}]}